name	address	latitude	longitude	phone	workingTime	province
PGD Chợ Mới - CN An Giang	Số 27 Trần Hưng Đạo nối dài, Thị trấn Chợ Mới, Chợ Mới, An Giang					An Giang
PGD An Phú - CN Châu Đốc	Trung tâm thương mại Thị trấn An Phú, An Phú, An Giang					Phú Thọ
CN An Giang	Số 270 Lý Thái Tổ, Phường Mỹ Long, Long Xuyên, An Giang					Long An
PGD Phú Tân - CN An Giang	Số 27 Lê Duẩn, Khóm Trung 1, Thị trấn Phú Mỹ, Phú Tân, An Giang					Phú Thọ
PGD Long Xuyên - CN An Giang	Số 24 Ngô Gia Tự, Phường Mỹ Long, Long Xuyên, An Giang					Long An
PGD Thoại Sơn - CN An Giang	Số 30, 32, 34, 36, 38 Lê Hồng Phong, Thị trấn Núi Sập, Thoại Sơn, An Giang					An Giang
PGD Nam Châu Đốc - CN Châu Đốc	Số 51 Đinh Tiên Hoàng, Thị trấn Vĩnh Thạnh Trung, Châu Phú, An Giang					Tiền Giang
PGD Tri Tôn - CN An Giang	Số 196 Trần Hưng Đạo, Thị trấn Tri Tôn, Tri Tôn, An Giang					Quảng Trị
PGD Tân Châu - CN Châu Đốc	Số 180 Tôn Đức Thắng, Phường Long Thạnh, Tân Châu, An Giang					Long An
PGD Tịnh Biên - CN Châu Đốc	Đường Trà Sư, Khóm Sơn Đông, Phường Nhà Bàng, Tịnh Biên, An Giang					An Giang
PGD Phú Hòa - CN An Giang	Số 323 Trần Phú, Ấp Phú Hữu, Thị trấn Phú Hòa, Thoại Sơn, An Giang					Phú Thọ
CN Châu Đốc	Số 70 Nguyễn Hữu Cảnh, Phường Châu Phú A, Châu Đốc, An Giang					Lai Châu
PGD Châu Phú - CN An Giang	Số 32A Hai Bà Trưng, Ấp Bình Hòa, Thị trấn Cái Dầu, Châu Phú, An Giang					Hòa Bình
PGD Châu Thành - CN An Giang	Số 559A, Quốc lộ 91, Tổ 27, Hòa Phú 3, Thị trấn An Châu, Châu Thành, An Giang					Lai Châu
PGD Hiệp Hòa - CN Bắc Giang	Số 443 (cũ: 213) Hoàng Văn Thái, Thị trấn Thắng, Hiệp Hòa, Bắc Giang					Bắc Giang
CN Bắc Giang	Số 45 đường Nguyễn Văn Cừ, Phường Ngô Quyền, Bắc Giang, Bắc Giang					Hà Giang
PGD Chũ - CN Bắc Giang	Đường 31, TDP Trung Nghĩa, Thị trấn Chũ, Lục Ngạn, Bắc Giang					Bắc Giang
PGD Lạng Giang - CN Bắc Giang	Số 33 đường Cần Trạm, Thị Trấn Vôi, Lạng Giang, Bắc Giang					Hà Giang
PGD Lục Nam - CN Bắc Giang	Số 378 phố Bình Minh, Thị trấn Đồi Ngô, Lục Nam, Bắc Giang					Bắc Giang
PGD Thành phố Bắc Giang - CN Bắc Giang	Số 118-120 Nguyễn Thị Minh Khai, Phường Ngô Quyền, Bắc Giang, Bắc Giang					Hà Giang
PGD Việt Yên - CN Bắc Giang	Khu dân cư số 6, tuyến đường 295B, Phường Hồng Thái, Việt Yên, Bắc Giang					Bắc Giang
ĐĐKD PGD Tân Yên - CN Bắc Giang	Số 173 đường Hoàng Hoa Thám, Thị trấn Cao Thượng, Tân Yên, Bắc Giang					Bắc Giang
ĐĐKD PGD Yên Dũng - CN Bắc Giang	Tổ dân phố 1, đường Lê Đức Trung, Thị trấn Nham Biền, Yên Dũng, Bắc Giang					Bắc Giang
PGD Chợ Đồn - CN Bắc Kạn	Tổ 5, Thị trấn Bằng Lũng, Chợ Đồn, Bắc Kạn					Bắc Kạn
PGD Ba Bể - CN Bắc Kạn	Tòa nhà VNPT Ba Bể, Tiểu khu 6, thị trấn Chợ Rã, Ba Bể, Bắc Kạn					Bắc Kạn
CN Bắc Kạn	Số 15, đường Trường Chinh, Phường Đức Xuân, Bắc Kạn, Bắc Kạn					Bắc Kạn
PGD Hòa Bình - CN Bạc Liêu	Quốc lộ 1A, Ấp thị trấn A1, Thị trấn Hòa Bình, Hoà Bình, Bạc Liêu					Hòa Bình
PGD Hộ Phòng - CN Bạc Liêu	Số 203A Quốc lộ 1A, Phường Hộ Phòng, Giá Rai, Bạc Liêu					Hải Phòng
CN Bạc Liêu	Số 01 Hai Bà Trưng, Phường 3, Bạc Liêu, Bạc Liêu					Bắc Kạn
PGD Phước Long - CN Bạc Liêu	Ấp Long Thành, Thị trấn Phước Long, Phước Long, Bạc Liêu					Bình Phước
PGD Đông Hải - CN Bạc Liêu	Ấp 3, Thị trấn Gành Hào, Đông Hải, Bạc Liêu					Bạc Liêu
PGD Trung tâm - CN Bạc Liêu	Số 29B Hai Bà Trưng, Phường 3, Bạc Liêu, Bạc Liêu					Bắc Kạn
CN KCN Quế Võ	Lô E1, KCN Quế võ, Phường Vân Dương, Bắc Ninh, Bắc Ninh					Bắc Kạn
CN KCN Tiên Sơn	Số 18 đường TS 11, KCN Tiên Sơn, Xã Hoàn Sơn, Tiên Du, Bắc Ninh					Sơn La
PGD Gia Bình - CN Bắc Ninh	Thị trấn Gia Bình, Gia Bình, Bắc Ninh					Hòa Bình
CN Tiên Sơn	Đường Lý Thái Tổ, Phường Đông Ngàn, Từ Sơn, Bắc Ninh					Bắc Ninh
PGD Hòa Đình - CN Bắc Ninh	Cụm CN Võ Cường, Đường Nguyễn Văn Cừ, Phường Võ Cường, Bắc Ninh, Bắc Ninh					Bắc Kạn
PGD KCN Nam Sơn - Hạp Lĩnh - CN KCN Tiên Sơn	Phố Và, Phường Hạp Lĩnh, Bắc Ninh, Bắc Ninh					Bắc Kạn
PGD KCN VSIP Bắc Ninh - CN KCN Tiên Sơn	Khu đô thị Nam Từ Sơn, Phường Phù Chẩn, Từ Sơn, Bắc Ninh					Sơn La
PGD KCN Yên Phong - CN KCN Tiên Sơn	Khu công nghiệp Yên Phong, Yên Phong, Bắc Ninh					Yên Bái
PGD Khu Vực Đồng Nguyên - CN Tiên Sơn	Số 93 phố Mới, Phường Đồng Ngàn, Từ Sơn, Bắc Ninh					Bắc Ninh
PGD Bắc Từ Sơn - CN Tiên Sơn	27A1A cụm CNSX Đồ gỗ Mỹ nghệ Đồng Quang, Phường Đồng Kỵ, Từ Sơn, Bắc Ninh					Quảng Ninh
PGD Phố Mới - CN KCN Quế Võ	Khu nhà ở xã hội, Khu phố Đỉnh, Phường Phố Mới, Quế Võ, Bắc Ninh					Bắc Ninh
PGD Quế Võ - CN Bắc Ninh	Số 161-163 khu 1, Phường Phố Mới, Quế Võ, Bắc Ninh					Bắc Ninh
PGD Vệ An - CN KCN Quế Võ	Số 51 Đường Huyền Quang, Phường Ninh Xá, Bắc Ninh, Bắc Ninh					Bắc Kạn
PGD Yên Phong - CN Tiên Sơn	Khu phố Ngân Cầu, đường Văn Tiến Dũng, Thị trấn Chờ, Yên Phong, Bắc Ninh					Bắc Ninh
PGD Thanh Khương - CN Bắc Ninh	Đại Tự, Phường Thanh Khương, Thuận Thành, Bắc Ninh					Bắc Ninh
PGD Thuận An - CN KCN Quế Võ	Khu NOXH Lan Hưng, đường Kinh Dương Vương, Phường Hồ, Thuận Thành, Bắc Ninh					Bắc Ninh
PGD Lương Tài - CN Bắc Ninh	Thị trấn Thứa, Lương Tài, Bắc Ninh					Bắc Ninh
PGD Thuận Thành - CN Bắc Ninh	Phường Hồ, Thuận Thành, Bắc Ninh					Bắc Ninh
PGD Thành phố Bắc Ninh - CN Bắc Ninh	Số 92 Ngô Gia Tự, Phường Suối Hoa, Bắc Ninh, Bắc Ninh					Bắc Kạn
PGD Đông Ngàn - CN KCN Tiên Sơn	Khu phố Phù Khê Thượng, Phường Phù Khê, Từ Sơn, Bắc Ninh					Phú Thọ
PGD Thị Cầu - CN Bắc Ninh	Số 1 Hoàng Quốc Việt, Phường Thị Cầu, Bắc Ninh, Bắc Ninh					Bắc Kạn
PGD Đông Tiến - CN Bắc Ninh	Đường Tỉnh lộ 295, Thôn Thượng Thôn, Xã Đông Tiến, Yên Phong, Bắc Ninh					Bắc Ninh
PGD Nam Bắc Ninh - CN Tiên Sơn	Lô 3 N16 KĐT mới đường Lê Thái Tổ, Phường Võ Cường, Bắc Ninh, Bắc Ninh					Bắc Kạn
PGD Đại Phúc - CN KCN Tiên Sơn	Số nhà 306 đường Trần Hưng Đạo, Phường Đại Phúc, Bắc Ninh, Bắc Ninh					Bắc Kạn
PGD Nam Tiên Sơn - CN Tiên Sơn	KCN Đại Đồng, Xã Hoàn Sơn, Tiên Du, Bắc Ninh					Bắc Ninh
PGD Nguyễn Gia Thiều - CN KCN Quế Võ	Số 253, Đường Nguyễn Gia Thiều, Phường Tiền An, Bắc Ninh, Bắc Ninh					Bắc Kạn
PGD Phù Khê - CN Tiên Sơn	Khu phố Phù Khê Đông, Phường Phù Khê, Từ Sơn, Bắc Ninh					Phú Thọ
Trung tâm QLTM Bắc Ninh	Số 92 Ngô Gia Tự, Phường Suối Hoa, Bắc Ninh, Bắc Ninh					Bắc Kạn
PGD Châu Khê - CN Tiên Sơn	Số 116 Lý Thường Kiệt, Phường Châu Khê, Từ Sơn, Bắc Ninh					Bắc Ninh
CN Bắc Ninh	Số 31 Nguyễn Đăng Đạo, Phường Suối Hoa, Bắc Ninh, Bắc Ninh					Bắc Kạn
PGD Chợ Mới - CN Bà Rịa - Vũng Tàu	Số 09 Lý Tự Trọng, Phường 1, Vũng Tàu, Bà Rịa - Vũng Tàu					Bà Rịa Vũng Tàu
PGD Côn Đảo - CN Bà Rịa - Vũng Tàu	Số 2 Lê Duẩn, Côn Đảo, Bà Rịa - Vũng Tàu					Bà Rịa Vũng Tàu
PGD Bà Rịa - CN Bà Rịa - Vũng Tàu	Số 285 Trường Chinh, Phường Phước Trung, Bà Rịa, Bà Rịa - Vũng Tàu					Bà Rịa Vũng Tàu
CN Bà Rịa - Vũng Tàu	Số 159A Nam Kỳ Khởi Nghĩa, Phường 3, Vũng Tàu, Bà Rịa - Vũng Tàu					Bà Rịa Vũng Tàu
PGD Sao Mai - CN Bà Rịa - Vũng Tàu	Số 52 Nguyễn An Ninh, Phường 7, Vũng Tàu, Bà Rịa - Vũng Tàu					Bà Rịa Vũng Tàu
PGD Xuyên Mộc - CN Bà Rịa - Vũng Tàu	Số 292 Khu phố Thạnh Sơn, Thị trấn Phước Bửu, Xuyên Mộc, Bà Rịa - Vũng Tàu					Bà Rịa Vũng Tàu
PGD Long Điền - CN Bà Rịa - Vũng Tàu	Số 03 Tổ 8, Âp Lò Vôi, Xã Phước Hưng, Long Điền, Bà Rịa - Vũng Tàu					Bà Rịa Vũng Tàu
PGD Thắng Nhất - CN Bà Rịa - Vũng Tàu	Số 475 Đường 30 tháng 4, Phường Rạch Dừa, Vũng Tàu, Bà Rịa - Vũng Tàu					Bà Rịa Vũng Tàu
PGD Nguyễn An Ninh - CN Bà Rịa - Vũng Tàu	Số 503 Nguyễn An Ninh, Phường 9, Vũng Tàu, Bà Rịa - Vũng Tàu					Bà Rịa Vũng Tàu
PGD Tân Thành - CN Bà Rịa - Vũng Tàu	Số 138 đường Độc Lập, Khu phố Ngọc Hà, Phường Phú Mỹ, TX. Phú Mỹ, Bà Rịa - Vũng Tàu					Phú Thọ
PGD Châu Đức - CN Bà Rịa - Vũng Tàu	Số 257 Hùng Vương, Khu phố Hồng Lan, Thị trấn Ngãi Giao, Châu Đức, Bà Rịa - Vũng Tàu					Bà Rịa Vũng Tàu
PGD Châu Thành - CN Bến Tre	Số 189B, Khu phố 3, Thị trấn Châu Thành, Châu Thành, Bến Tre					Lai Châu
PGD Ba Tri - CN Bến Tre	Số 68 Nguyễn Đình Chiểu, KP2, Thị trấn Ba Tri, Ba Tri, Bến Tre					Quảng Trị
PGD Bình Đại - CN Bến Tre	Số 25A Khu phố 3, Thị trấn Bình Đại, Bình Đại, Bến Tre					Hòa Bình
CN Bến Tre	Số 02 Đại lộ Đồng Khởi, Phường An Hội, Bến Tre, Bến Tre					Bến Tre
PGD Tây Châu Thành - CN Bến Tre	Ấp Chánh, Xã Tiên Thủy, Châu Thành, Bến Tre					Bến Tre
PGD Mỏ Cày - CN Bến Tre	Số 222, Khu phố 3, Thị trấn Mỏ Cày, Mỏ Cày Nam, Bến Tre					Bến Tre
PGD Mỏ Cày Bắc - CN Bến Tre	Khu phố Phước Hậu, Thị trấn Phước Mỹ Trung, Mỏ Cày Bắc, Bến Tre					Bình Phước
PGD An Nhơn - CN KCN Phú Tài	Số 747 Trường Chinh, KV An Ngãi, Phường Nhơn Hưng, An Nhơn, Bình Định					Nghệ An
PGD Bình Khê - CN KCN Phú Tài	Số 388-390-392 đường Quang Trung, Thị trấn Phú Phong, Tây Sơn, Bình Định					Quảng Bình
CN Bình Định	Số 66A Lê Duẩn, Phường Lý Thường Kiệt, Qui Nhơn, Bình Định					Bình Định
CN KCN Phú Tài	Số 218 Lạc Long Quân, Phường Trần Quang Diệu, Qui Nhơn, Bình Định					Quảng Bình
PGD Chợ Lớn Quy Nhơn - CN Bình Định	Số 23 Tăng Bạt Hổ, Phường Lê Lợi, Qui Nhơn, Bình Định					Bình Định
PGD Hoài Nhơn - CN KCN Phú Tài	Số 3200 (cũ: 127) Quang Trung, Phường Bồng Sơn, Hoài Nhơn, Bình Định					Quảng Bình
PGD Hoài Ân - CN KCN Phú Tài	Số 1 Hai Bà Trưng, KP Gia Chiểu 2, Thị trấn Tăng Bạt Hổ, Hoài Ân, Bình Định					Bình Định
PGD Tây Sơn - CN Bình Định	Số 114 Tây Sơn, Phường Nguyễn Văn Cừ, Qui Nhơn, Bình Định					Bình Định
PGD Đống Đa - CN Bình Định	Quốc lộ 1A, thôn Tiên Hội, Phường Nhơn Thành, An Nhơn, Bình Định					Bình Định
PGD Phù Cát - CN KCN Phú Tài	Quốc lộ 1A, Thôn Phú Kim, Xã Cát Trinh, Phù Cát, Bình Định					Phú Thọ
PGD Phù Mỹ - CN KCN Phú Tài	Số 269 Quang Trung, Thị trấn Phù Mỹ, Phù Mỹ, Bình Định					Phú Thọ
PGD Quy Nhơn - CN Bình Định	Số 257 Lê Hồng Phong, Phường Lê Hồng Phong, Qui Nhơn, Bình Định					Hải Phòng
PGD Lam Sơn - CN KCN Phú Tài	Tổ 10, KV 2, Số 62 Chương Dương, Phường Nguyễn Văn Cừ, Qui Nhơn, Bình Định					Bình Định
PGD Vũ Bảo - CN Bình Định	Số 03 Vũ Bảo, Phường Ngô Mây, Qui Nhơn, Bình Định					Bình Định
PGD Nguyễn Huệ - CN Bình Định	Thị trấn Cát Tiến, Phù Cát, Bình Định					Bình Định
PGD Trần Hưng Đạo - CN Bình Định	Số 565 Trần Hưng Đạo, Phường Lê Hồng Phong, Qui Nhơn, Bình Định					Hải Phòng
PGD Trần Phú - CN Bình Định	Số 102 Trần Phú, Phường Lê Hồng Phong, Qui Nhơn, Bình Định					Hải Phòng
PGD Tuy Phước - CN Bình Định	Khu phố Mỹ Điền, Thôn Công Chánh, Thị trấn Tuy Phước, Tuy Phước, Bình Định					Bình Định
PGD Dĩ An - CN Bình Dương	Số 76 Nguyễn Trãi, KP Thống Nhất, Phường Dĩ An, Dĩ An, Bình Dương					Nghệ An
PGD An Bình - CN KCN Bình Dương	Đường GS1 KĐT Quảng Trường Xanh, phố Nhị Đồng2, P.Dĩ An, Dĩ An, Bình Dương					Hải Dương
PGD An Phú - CN KCN Bình Dương	Số 12/2 khu phố 1B, Phường An Phú, Thuận An, Bình Dương					Nghệ An
PGD Bàu Bàng - CN Bình Dương	Số 01-02 đường NC, Ấp 5, Thị trấn Lai Uyên, Bàu Bàng, Bình Dương					Hải Dương
CN Bình Dương	Số 330 Đại lộ Bình Dương, Phường Phú Hoà, Thủ Dầu Một, Bình Dương					Hòa Bình
CN KCN Bình Dương	Số 20 Độc Lập, KCN Sóng Thần 1, Phường An Bình, Dĩ An, Bình Dương					Hòa Bình
PGD Thuận An - CN KCN Bình Dương	Số 7B/2 Tỉnh lộ 43, Khu phố Đồng An 1, Phường Bình Hòa, Thuận An, Bình Dương					Hòa Bình
PGD Thuận Giao - CN KCN Bình Dương	Số 1/75, Khu phố Hòa Lân 2, Phường Thuận Giao, Thuận An, Bình Dương					Hòa Bình
PGD Mỹ Phước - CN Bình Dương	Đường Quốc lộ 13, Khu phố 4, Phường Mỹ Phước, Bến Cát, Bình Dương					Hải Dương
PGD Thủ Dầu Một - CN KCN Bình Dương	13-14 NP5 TTĐT Becamex, đường 30/4, KP 2, P. Phú Hòa, Thủ Dầu Một, Bình Dương					Hòa Bình
PGD Đồng An - CN KCN Bình Dương	Sora Gadens I, Khu B Lô 11, đường Hùng Vương,P. Hòa Phú, Thủ Dầu Một, Bình Dương					Hòa Bình
PGD Tân Phước Khánh - CN Bình Dương	Số 3 đường ĐT746 KP Khánh Thạnh, Phường Tân Phước Khánh, Tân Uyên, Bình Dương					Hải Dương
PGD Tân Đông Hiệp - CN Bình Dương	Số 48 đường ĐT743, KP Chiêu Liêu, Phường Tân Đông Hiệp, Dĩ An, Bình Dương					Hải Dương
PGD Phú Giáo - CN Bình Dương	Số 579 đường ĐT741, Khu phố 9, Thị trấn Phước Vĩnh, Phú Giáo, Bình Dương					Hải Dương
PGD Lái thiêu - CN Bình Dương	Số 123 - 125 Nguyễn Văn Tiết, KP. Đông Tư, P. Lái Thiêu, Thuận An, Bình Dương					Bình Thuận
PGD Hớn Quản - CN Bình Phước	Quốc lộ 13, Thị Trấn Tân Khai, Huyện Hớn Quản, Hớn Quản, Bình Phước					Bình Phước
PGD Bình Long - CN Bình Phước	128 đường Nguyễn Huệ, Khu phố Phú Nghĩa, Phường Phú Đức, Bình Long, Bình Phước					Hòa Bình
PGD Bù Đăng - CN Bình Phước	Quốc lộ 14, Thị trấn Đức Phong, Bù Đăng, Bình Phước					Bình Phước
CN Bình Phước	Số 622 Quốc lộ 14, Phường Tân Phú, Đồng Xoài, Bình Phước					Bình Phước
PGD Chơn Thành - CN Bình Phước	Quốc lộ 13, Khu phố 3, Phường Hưng Long, Chơn Thành, Bình Phước					Bình Phước
PGD Tân Tiến - CN Bình Phước	Đường ĐT741, Thị Trấn Tân Phú, Đồng Phú, Bình Phước					Phú Thọ
PGD Phú Riềng - CN Bình Phước	Đường ĐT 741, Thôn Phú Nguyên, Xã Phú Riềng, Phú Riềng, Bình Phước					Phú Thọ
PGD Phước Bình - CN Bình Phước	Đường ĐT 741, Khu phố 2, Phường Long Phước, Phước Long, Bình Phước					Bình Phước
CN Bình Thuận	Số 02 Nguyễn Tất Thành, Phường Bình Hưng, Phan Thiết, Bình Thuận					Hòa Bình
PGD Hàm Thuận Nam - CN Bình Thuận	Số 284 đường Trần Hưng Đạo, Thị trấn Thuận Nam, Hàm Thuận Nam, Bình Thuận					Hà Nam
PGD Hàm Tân - CN Bình Thuận	Số 153N đường Lê Lợi, Phường Phước Hội, La Gi, Bình Thuận					Bình Thuận
PGD Đức Linh - CN Bình Thuận	Số 212B đường Ba Tháng Hai, Khu phố 9, Thị trấn Đức Tài, Đức Linh, Bình Thuận					Hải Dương
PGD số 01 Phan Thiết - CN Bình Thuận	Số 441 đường Trần Hưng Đạo, Phường Đức Thắng, Phan Thiết, Bình Thuận					Bình Thuận
PGD số 2 Phan Thiết - CN Bình Thuận	Số 24 đường Trần Phú, Phường Lạc Đạo, Phan Thiết, Bình Thuận					Bình Thuận
PGD Mũi Né - CN Bình Thuận	Số 21 đường Chế Lan Viên, Phường Mũi Né, Phan Thiết, Bình Thuận					Bình Thuận
CN Cà Mau	Số 94 Lý Thường Kiệt, Phường 7, Cà Mau, Cà Mau					Cà Mau
PGD Phường 2 - CN Cà Mau	Số 102 -104 Lê Lợi, Phường 2, Cà Mau, Cà Mau					Cà Mau
PGD Phường 8 - CN Cà Mau	Số 138 Nguyễn Tất Thành, Phường 8, Cà Mau, Cà Mau					Cà Mau
PGD Sông Đốc - CN Cà Mau	Khóm 10, Thị trấn Sông Đốc, Trần Văn Thời, Cà Mau					Cà Mau
PGD Thành phố Cà Mau - CN Cà Mau	Số 27-29-31 Đề Thám, Phường 2, Cà Mau, Cà Mau					Cà Mau
PGD Tắc Vân - CN Cà Mau	Số 789 Quốc Lộ 1A, Xã Tắc Vân, Cà Mau, Cà Mau					Cà Mau
CN Cần Thơ	Số 59-59A Phan Đình Phùng, Phường Tân An, Ninh Kiều, TP. Cần Thơ					Cần Thơ
PGD Cái Răng - CN Cần Thơ	Số 178 Khu vực Yên Hạ, Phường Lê Bình, Cái Răng, TP. Cần Thơ					Cần Thơ
PGD Cờ Đỏ - CN Tây Cần Thơ	Dự án chỉnh trang ĐT và cải thiện MT sống TT Cờ Đỏ, Cờ Đỏ, TP. Cần Thơ					Cần Thơ
CN Tây Cần Thơ	Số 326 đường 30/4, Phường Xuân Khánh, Ninh Kiều, TP. Cần Thơ					Cần Thơ
PGD An Thới - CN Cần Thơ	Số 8A, đường Cách Mạng Tháng Tám, Phường An Thới, Bình Thủy, TP. Cần Thơ					Bình Dương
PGD KCN Thốt Nốt - CN Tây Cần Thơ	Số 312C, Quốc lộ 91, Long Thạnh A, Phường Thốt Nốt, Thốt Nốt, TP. Cần Thơ					Cần Thơ
PGD Bình Thủy - CN Tây Cần Thơ	Lô 30A9, Khu công nghiệp Trà Nóc, Phường Trà Nóc, Bình Thủy, TP. Cần Thơ					Trà Vinh
PGD Ô Môn - CN Tây Cần Thơ	Số 1177/6 Khu vực 4, Phường Châu Văn Liêm, Ô Môn, TP. Cần Thơ					Cần Thơ
PGD Thành Công - CN Cần Thơ	Căn số LK1-4 + LK1-5, đường tỉnh 922, Thị trấn Thới Lai, Thới Lai, TP. Cần Thơ					Lai Châu
PGD Thắng Lợi - CN Cần Thơ	Số 9 Phan Đình Phùng, Phường Tân An, Ninh Kiều, TP. Cần Thơ					Cần Thơ
PGD Thốt Nốt - CN Cần Thơ	Số 469C Quốc lộ 91, KV Phụng Thạnh1, Phường Thốt Nốt, Thốt Nốt, TP. Cần Thơ					Cần Thơ
PGD Nguyễn Trãi - CN Cần Thơ	Số 12 Nguyễn Trãi, Phường Cái Khế, Ninh Kiều, TP. Cần Thơ					Cần Thơ
PGD Nguyễn Văn Cừ - CN Tây Cần Thơ	Số 373C đường Nguyễn Văn Cừ, Khu vực 3, Phường An Khánh, Ninh Kiều, TP. Cần Thơ					Cần Thơ
PGD Ninh Kiều - CN Cần Thơ	Số 27 đường Mậu Thân, Phường Xuân Khánh, Ninh Kiều, TP. Cần Thơ					Cần Thơ
PGD Phong Điền - CN Cần Thơ	TTTM huyện Phong Điền, Ấp Thị Tứ, Thị trấn Phong Điền, Phong Điền, TP. Cần Thơ					Điện Biên
CN Cao Bằng	Tòa nhà Phoenix, Phố Kim Đồng, Phường Hợp Giang, Cao Bằng, Cao Bằng					Cao Bằng
PGD Quảng Uyên - CN Cao Bằng	Tổ dân phố Hòa Trung, Thị trấn Quảng Uyên, Quảng Hòa, Cao Bằng					Cao Bằng
PGD Sông Bằng - CN Cao Bằng	Số 71 đường 3/10, Tổ 9 Phường Sông Bằng, Cao Bằng, Cao Bằng					Cao Bằng
PGD Đề Thám - CN Cao Bằng	Tổ 5, Phường Đề Thám, Cao Bằng, Cao Bằng					Cao Bằng
CN Đắk Lắk	Số 35 Nguyễn Tất Thành, Phường Tân Lợi, Buôn Ma Thuột, Đắk Lắk					Đắk Lắk
PGD Ea H’leo - CN Đắk Lắk	Số 415-417-419 Giải Phóng, Thị trấn Ea Đrăng, Ea H'leo, Đắk Lắk					Đắk Lắk
PGD Ea Kar - CN Đắk Lắk	Số 145-147 Nguyễn Tất Thành, Thị trấn Ea Kar, Ea Kar, Đắk Lắk					Đắk Lắk
PGD Buôn Hồ - CN Đắk Lắk	Số 537-539 Hùng Vương, Phường An Lạc, Buôn Hồ, Đắk Lắk					Đắk Lắk
PGD Cư Kuin - CN Đắk Lắk	Km20, Quốc lộ 27, Xã Dray Bhang, Huyện Cư Kuin, Cư Kuin, Đắk Lắk					Đắk Lắk
PGD Cưmgar - CN Đắk Lắk	Sô 91 Hùng Vương, Thị trấn Quảng Phú, Cư M'gar, Đắk Lắk					Đắk Lắk
PGD Quang Trung - CN Đắk Lắk	Số 40 Nguyễn Thị Minh Khai, Phường Thắng Lợi, Buôn Ma Thuột, Đắk Lắk					Đắk Lắk
PGD Krông Pắk - CN Đắk Lắk	Số 435 A đường Giải Phóng, Thị trấn Phước An, Krông Pắk, Đắk Lắk					Đắk Lắk
PGD Lê Hồng Phong - CN Đắk Lắk	Số 253 Lê Hồng Phong, Phường Thống Nhất, Buôn Ma Thuột, Đắk Lắk					Hải Phòng
PGD Cư Jút - CN Đăk Nông	Số 245 đường Nguyễn Tất Thành, Thị trấn EaTling, Cư Jút, Đắk Nông					Đắk Nông
CN Đăk Nông	Số 78 Trương Định, Phường Nghĩa Thành, Gia Nghĩa, Đắk Nông					Đắk Nông
PGD Đăk Mil - CN Đăk Nông	Số 160 đường Nguyễn Tất Thành, Thị trấn Đăk Mil, Đăk Mil, Đắk Nông					Đắk Lắk
PGD Đăk R' lấp - CN Đăk Nông	Đường Nguyễn Tất Thành, QL14, Thị trấn Kiến Đức, Đăk R'Lấp, Đắk Nông					Đắk Lắk
PGD Đắk Song - CN Đăk Nông	Quốc lộ 14, Thị trấn Đức An, Đăk Song, Đắk Nông					Đắk Lắk
PGD Nhân Cơ - CN Đăk Nông	Ngã 3 Quốc lộ 14 - Đường vào Nhà máy Alumin, Xã Nhân Cơ, Đăk R'Lấp, Đắk Nông					Đắk Lắk
PGD Cẩm Lệ - CN Đà Nẵng	Số 521-523 Nguyễn Hữu Thọ, Phường Khuê Trung, Cẩm Lệ, TP. Đà Nẵng					Đà Nẵng
CN Đà Nẵng	Số 218 Nguyễn Văn Linh, Phường Vĩnh Trung, Thanh Khê, TP. Đà Nẵng					Đà Nẵng
PGD Hải Châu - CN Đà Nẵng	Lô B17, khu B3-2, đường 2/9, Phường Bình Thuận, Hải Châu, TP. Đà Nẵng					Hải Dương
PGD Hoà Khánh - CN Bắc Đà Nẵng	Số 910 Tôn Đức Thắng, Phường Hòa Khánh Bắc, Liên Chiểu, TP. Đà Nẵng					Đà Nẵng
PGD Hòa Vang - CN Đà Nẵng	Số 480 Phạm Hùng, Xã Hòa Phước, Hoà Vang, TP. Đà Nẵng					Hòa Bình
PGD Hùng Vương - CN Đà Nẵng	Số 368 Hùng Vương, Phường Vĩnh Trung, Thanh Khê, TP. Đà Nẵng					Đà Nẵng
CN Bắc Đà Nẵng	Số 381 Nguyễn Lương Bằng, Phường Hòa Khánh Bắc, Liên Chiểu, TP. Đà Nẵng					Đà Nẵng
CN Ngũ Hành Sơn	Số 49 đường Ngũ Hành Sơn, Phường Mỹ An, Ngũ Hành Sơn, TP. Đà Nẵng					Sơn La
CN Sông Hàn	Tầng trệt và 1, Số 36 Trần Quốc Toản, Phường Hải Châu I, Hải Châu, TP. Đà Nẵng					Lai Châu
PGD Mỹ Khê - CN Sông Hàn	Số 117 Nguyễn Văn Thoại, Phường An Hải Đông, Sơn Trà, TP. Đà Nẵng					Hải Phòng
PGD Ông Ích Khiêm - CN Ngũ Hành Sơn	Số 421 Ông Ích Khiêm, Phường Hải Châu II, Hải Châu, TP. Đà Nẵng					Lai Châu
PGD Nam Hải Châu - CN Bắc Đà Nẵng	Số 253 Nguyễn Hữu Thọ, Phường Hòa Thuận Tây, Hải Châu, TP. Đà Nẵng					Hải Phòng
PGD Nam Đà Nẵng - CN Ngũ Hành Sơn	Số 86 Hoàng Xuân Hãn, Phường Khuê Trung, Cẩm Lệ, TP. Đà Nẵng					Đà Nẵng
PGD Điện Biên Phủ - CN Đà Nẵng	Số 344 - 346 Điện Biên Phủ, Phường Hòa Khê, Thanh Khê, TP. Đà Nẵng					Điện Biên
PGD Non Nước - CN Sông Hàn	Số 602 đường Lê Văn Hiến, Phường Hòa Hải, Ngũ Hành Sơn, TP. Đà Nẵng					Hải Dương
PGD Phan Châu Trinh - CN Đà Nẵng	Số 12 Phan Chu Trinh, Phường Hải Châu I, Hải Châu, TP. Đà Nẵng					Lai Châu
PGD Tây Hồ - CN Ngũ Hành Sơn	Số 176 Phan Châu Trinh, Phường Phước Ninh, Hải Châu, TP. Đà Nẵng					Lai Châu
PGD Võ Văn Kiệt - CN Đà Nẵng	Số 141 Võ Văn Kiệt, Phường An Hải Đông, Sơn Trà, TP. Đà Nẵng					Hải Phòng
PGD Sơn Trà - CN Đà Nẵng	Số 486 Ngô Quyền, Phường An Hải Bắc, Sơn Trà, TP. Đà Nẵng					Hải Phòng
PGD Lê Duẩn - CN Đà Nẵng	Số 163 Lê Duẩn, Phường Thạch Thang, Hải Châu, TP. Đà Nẵng					Hải Phòng
PGD Thanh Bình - CN Bắc Đà Nẵng	Số 162 Đống Đa, Phường Thuận Phước, Hải Châu, TP. Đà Nẵng					Hải Phòng
PGD Thanh Khê 1 - CN Bắc Đà Nẵng	Số 420 đường Lê Duẩn, Phường Chính Gián, Thanh Khê, TP. Đà Nẵng					Đà Nẵng
PGD Thanh Khê 2 - CN Bắc Đà Nẵng	Số 201 Điện Biên Phủ, Phường Chính Gián, Thanh Khê, TP. Đà Nẵng					Điện Biên
Trung tâm QLTM Đà nẵng	Tầng 4, tòa nhà 36 Trần Quốc Toản, Hải Châu, TP. Đà Nẵng					Đà Nẵng
VPĐD tại Đà Nẵng	Số 36 Trần Quốc Toản, Phường Hải Châu 1, Hải Châu, TP. Đà Nẵng					Lai Châu
PGD Bản Phủ - CN Điện Biên	Đội 24, Xã Noong Hẹt, Điện Biên, Điện Biên					Điện Biên
CN Điện Biên	Số 07 Trần Đăng Ninh, TDP 4, Phường Mường Thanh, Điện Biên Phủ, Điện Biên					Điện Biên
PGD Nam Thanh - CN Điện Biên	Số 43, Tổ 08, Phường Nam Thanh, Điện Biên Phủ, Điện Biên					Điện Biên
PGD Noong Bua - CN Điện Biên	Kios 11 Chợ Noong Bua, Tổ 07, Phường Noong Bua, Điện Biên Phủ, Điện Biên					Điện Biên
PGD Tân Thanh - CN Điện Biên	Số 527, Tổ 01, Phường Tân Thanh, Điện Biên Phủ, Điện Biên					Điện Biên
CN Đồng Nai	Số 77D Hưng Đạo Vương, Phường Trung Dũng, Biên Hòa, Đồng Nai					Đồng Nai
PGD Hố Nai - CN KCN Biên Hòa	Số 2/3 Quốc lộ 1A, Phường Tân Hòa, Biên Hòa, Đồng Nai					Hòa Bình
PGD An Bình - CN KCN Biên Hòa	Khu phố 10, Phường An Bình, Biên Hòa, Đồng Nai					Hòa Bình
PGD Bửu Hòa - CN Đồng Nai	Số 229E Nguyễn Tri Phương, Phường Bửu Hoà, Biên Hòa, Đồng Nai					Hòa Bình
CN KCN Biên Hòa	Ngã tư Amata, Xa lộ Hà Nội, Phường Long Bình, Biên Hòa, Đồng Nai					Hà Nội
CN Nhơn Trạch	Đường Tôn Đức Thắng, Xã Phú Hội, Nhơn Trạch, Đồng Nai					Đồng Nai
PGD Lộc An - CN KCN Biên Hòa	Số 664 Lê Duẩn, Tổ 5, Khu Cầu Xéo, Thị trấn Long Thành, Long Thành, Đồng Nai					Thanh Hóa
PGD Thống Nhất - CN KCN Biên Hòa	Số K20-21 Đường Võ Thị Sáu, Phường Thống Nhất, Biên Hòa, Đồng Nai					Đồng Nai
PGD Đại Phước - CN Nhơn Trạch	Số 30-40 Lý Thái Tổ, Xã Đại Phước, Nhơn Trạch, Đồng Nai					Đồng Nai
PGD Trảng Bom - CN KCN Biên Hòa	Số 179 đường 29/4, Khu phố 5, Thị trấn Trảng Bom, Trảng Bom, Đồng Nai					Đồng Nai
PGD Tân Hiệp - CN Đồng Nai	Số 2/25 đường Đồng Khởi, Khu phố 6, Phường Tam Hiệp, Biên Hòa, Đồng Nai					Lâm Đồng
PGD Tân Tiến - CN Đồng Nai	Số 1525 Phạm Văn Thuận, Phường Thống Nhất, Biên Hòa, Đồng Nai					Đồng Nai
PGD Phước Hải - CN Nhơn Trạch	Số 55 Hai Bà Trưng, Khu Phước Hải, Thị trấn Long Thành, Long Thành, Đồng Nai					Hải Dương
PGD Phước Thiền - CN Nhơn Trạch	Số 391 đường Lý Thái Tổ, Ấp Bến Sắn, Xã Phước Thiền, Nhơn Trạch, Đồng Nai					Đồng Nai
PGD Long Khánh - CN Đồng Nai	Số 46 Nguyễn Trãi, Khu phố 5, Phường Xuân Hòa, Long Khánh, Đồng Nai					Khánh Hòa
PGD Long Thành - CN Đồng Nai	QL51A, khu Phước Hải, Thị trấn Long Thành, Long Thành, Đồng Nai					Thanh Hóa
PGD Long Thọ - CN Nhơn Trạch	Ấp 2, Xã Long Thọ, Nhơn Trạch, Đồng Nai					Đồng Nai
PGD Tam Hiệp - CN Đồng Nai	Số 32 đường Phạm Văn Thuận, Phường Tam Hiệp, Biên Hòa, Đồng Nai					Đồng Nai
CN Đồng Tháp	Số 87 Nguyễn Huệ, Phường 1, TP. Cao Lãnh, Đồng Tháp					Đồng Tháp
PGD Hồng Ngự - CN Đồng Tháp	Số 15 Lê Lai, Khóm 4, Phường An Thạnh, TP. Hồng Ngự, Đồng Tháp					Đồng Tháp
CN Sa Đéc	Số 209A Trần Hưng Đạo, Phường 1, Sa Đéc, Đồng Tháp					Đồng Tháp
PGD Lấp Vò - CN Đồng Tháp	Khóm Bình Thạnh 1, Quốc lộ 80, Thị trấn Lấp Vò, Lấp Vò, Đồng Tháp					Đồng Tháp
PGD Tháp Mười - CN Đồng Tháp	Số 107 Lê Quý Đôn, Khóm 1,Thị trấn Mỹ An, Tháp Mười, Đồng Tháp					Đồng Tháp
PGD Mỹ Thọ - CN Đồng Tháp	Đường Nguyễn Trãi, Thị trấn Mỹ Thọ, Cao Lãnh, Đồng Tháp					Đồng Tháp
PGD Thường Thới Tiền - CN Đồng Tháp	Số 72-74 Nguyễn Văn Phối, Thị trấn Thường Thới Tiền, Hồng Ngự, Đồng Tháp					Đồng Tháp
PGD Nha Mân - CN Sa Đéc	Số 1-2, Lô K Tỉnh lộ 854, Xã Tân Nhuận Đông, Châu Thành, Đồng Tháp					Lâm Đồng
PGD Tân Mỹ - CN Đồng Tháp	Ấp Tân Thuận B, Xã Tân Mỹ, Lấp Vò, Đồng Tháp					Đồng Tháp
PGD Tân Thành - CN Sa Đéc	Quốc lộ 54, Xã Tân Thành, Lai Vung, Đồng Tháp					Đồng Tháp
PGD Lai Vung - CN Sa Đéc	Số 231A Quốc lộ 80, khóm 4, Thị trấn Lai Vung, Lai Vung, Đồng Tháp					Lai Châu
PGD Tam Nông - CN Đồng Tháp	Đường Nguyễn Trãi, Thị trấn Tràm Chim, Tam Nông, Đồng Tháp					Đồng Tháp
PGD Chư Prông - CN Gia Lai	Số 180 Hùng Vương, Thị trấn Chư Prông, Chư Prông, Gia Lai					Gia Lai
PGD Chư Păh - CN Gia Lai	Số 59-61 Hùng Vương, Thị trấn Phú Hòa, Chư Păh, Gia Lai					Gia Lai
PGD Chư Pưh - CN Gia Lai	Thôn Hòa Phú, Thị trấn Nhơn Hòa, Chư Pưh, Gia Lai					Hòa Bình
PGD Chư Sê - CN Gia Lai	Sô 800 đường Hùng Vương, Thị trấn Chư Sê, Chư Sê, Gia Lai					Gia Lai
PGD Hai Bà Trưng - CN Gia Lai	Số 100 Hai Bà Trưng, Phường Diên Hồng, Pleiku, Gia Lai					Hải Phòng
PGD Ia Grai - CN Gia Lai	Số 362 Hùng Vương, Thị trấn Ia Kha, Ia Grai, Gia Lai					Gia Lai
PGD An Khê - CN Gia Lai	Sô 270 Quang Trung, Phường An Phú, An Khê, Gia Lai					Nghệ An
CN Gia Lai	Số 01 Trần Hưng Đạo, Phường Tây Sơn, Pleiku, Gia Lai					Gia Lai
PGD Phù Đổng - CN Gia Lai	Số 01 Phù Đổng, Phường Phù Đổng, Pleiku, Gia Lai					Phú Thọ
PGD Đăk Đoa - CN Gia Lai	Số 201 Nguyễn Huệ, Tổ 4, Thị trấn Đắk Đoa, Đăk Đoa, Gia Lai					Gia Lai
PGD Thành phố Pleiku - CN Gia Lai	Số 38 Trần Khánh Dư, Phường Diên Hồng, Pleiku, Gia Lai					Gia Lai
PGD Đức Cơ - CN Gia Lai	Số 573 Quang Trung, Thị trấn Chư Ty, Đức Cơ, Gia Lai					Gia Lai
PGD Bắc Quang - CN Hà Giang	Tổ 04 Thị Trấn Việt Quang, Bắc Quang, Hà Giang					Hà Giang
CN Hà Giang	Số 116 đường Trần Hưng Đạo, Phường Trần Phú, Hà Giang, Hà Giang					Hà Nội
PGD Vị Xuyên - CN Hà Giang	Tổ 9, Thị trấn Vị Xuyên, Vị Xuyên, Hà Giang					Hà Giang
PGD Quản Bạ - CN Hà Giang	Tổ 3, Thị trấn Tam Sơn, Quản Bạ, Hà Giang					Hà Giang
PGD Trần Phú - CN Hà Giang	Căn A2 Khu đô thị CIC-Luxury, Tổ 16, Phường Minh Khai, Hà Giang, Hà Giang					Hà Nội
PGD Nguyễn Trãi - CN Hà Giang	Tổ 10, Phường Nguyễn Trãi, Hà Giang, Hà Giang					Hà Nội
CN Hải Dương	Số 01 Hồng Quang, Phường Nguyễn Trãi, Hải Dương, Hải Dương					Hải Dương
CN KCN Hải Dương	Số 9 Đường Đức Minh, Phường Thanh Bình, Hải Dương, Hải Dương					Hải Dương
PGD Cẩm Giàng - CN Hải Dương	Lô C, số C1 Khu 18 ĐTTM Lai Cách,Thị trấn Lai Cách, Cẩm Giàng, Hải Dương					Lai Châu
PGD Gia Lộc - CN KCN Hải Dương	Ngã ba xã Gia Tân, Gia Lộc, Hải Dương					Hải Dương
CN Đông Hải Dương	Số 297 Trần Hưng Đạo, Phường An Lưu, Kinh Môn, Hải Dương					Hải Dương
PGD Hiệp Sơn - CN Đông Hải Dương	Khu dân cư Hiệp Thượng, Phường Hiệp Sơn, Kinh Môn, Hải Dương					Hải Dương
PGD Hải Tân - CN Hải Dương	Số 17 Yết Kiêu, Phường Hải Tân, Hải Dương, Hải Dương					Hải Dương
PGD Bình Giang - CN Hải Dương	Thị trấn Kẻ Sặt (Số 6 Ngã 5 cũ), Bình Giang, Hải Dương					Hải Dương
PGD Kim Thành - CN KCN Hải Dương	Số 42 Đường 20/9, Thị trấn Phú Thái, Kim Thành, Hải Dương					Hải Dương
PGD Phú Thứ - CN Đông Hải Dương	Số 155 đường Vũ Mạnh Hùng, Phường Phú Thứ, Kinh Môn, Hải Dương					Hải Dương
PGD Tứ Kỳ - CN Hải Dương	Thôn An Nhân, Thị trấn Tứ Kỳ, Tứ Kỳ, Hải Dương					Hải Dương
PGD Thanh Hà - CN Đông Hải Dương	Số nhà 120, đường 25-5, thị trấn Thanh Hà, Thanh Hà, Hải Dương					Hà Nội
PGD Thanh Miện - CN Hải Dương	Số 466 Nguyễn Lương Bằng, Thị trấn Thanh Miện, Thanh Miện, Hải Dương					Hải Dương
PGD Điện Biên Phủ - CN KCN Hải Dương	Số 313 Đường Điện Biên Phủ, Phường Bình Hàn, Hải Dương, Hải Dương					Điện Biên
PGD Minh Tân - CN Đông Hải Dương	Khu 2 Bích Nhôi, Phường Minh Tân, Kinh Môn, Hải Dương					Hải Dương
PGD Thống Nhất - CN Hải Dương	Số 61 đường Thống Nhất, Phường Lê Thanh Nghị, Hải Dương, Hải Dương					Hải Dương
PGD Nam Sách - CN KCN Hải Dương	Số 385, đường Trần Phú, Thị trấn Nam Sách, Nam Sách, Hải Dương					Hải Dương
PGD Tiền Trung - CN Đông Hải Dương	Khu dân cư Độc Lập, Phường Ái Quốc, Hải Dương, Hải Dương					Hải Dương
PGD Trần Hưng Đạo - CN Hải Dương	Số 17 đại lộ Trần Hưng Đạo, Phường Trần Hưng Đạo, Hải Dương, Hải Dương					Hải Dương
PGD Trần Phú - CN Hải Dương	Số 123 phố Tuy Hoà, Phường Trần Phú, Hải Dương, Hải Dương					Hải Dương
PGD Ninh Giang - CN Hải Dương	Quốc lộ 37, thôn Tranh Xuyên, Xã Đồng Tâm, Ninh Giang, Hải Dương					Hải Dương
PGD Chí Linh - CN KCN Hải Dương	Số 478A Trần Hưng Đạo, Phường Sao Đỏ, Chí Linh, Hải Dương					Hải Dương
PGD An Dương 1 - CN Hồng Bàng	Thị trấn An Dương, An Dương, TP. Hải Phòng					Hải Dương
PGD KCN VSIP - CN Lê Chân	Tầng 1 lô BT2 Khu đô thị, CN & DV VSIP, Xã Thủy Đường, Thuỷ Nguyên, TP. Hải Phòng					Hải Dương
PGD An Lão - CN Kiến An	Số 19A Ngô Quyền, Thị trấn An Lão, An Lão, TP. Hải Phòng					Lào Cai
PGD Hồ Sen - CN Hải Phòng	Tổ 9, Phường Dư Hàng Kênh, Lê Chân, TP. Hải Phòng					Hải Phòng
PGD Bạch Đằng - CN Lê Chân	Số 97 Bạch Đằng, Phường Hạ Lý, Hồng Bàng, TP. Hải Phòng					Hải Phòng
CN Bắc Hải Phòng	Số 116 Tô Hiệu, Phường Trại Cau, Lê Chân, TP. Hải Phòng					Hải Phòng
CN Hải Phòng	Số 36 Đường Điện Biên Phủ, Phường Máy Tơ, Ngô Quyền, TP. Hải Phòng					Điện Biên
CN Hồng Bàng	Số 90 Trần Quang Khải, Phường Hoàng Văn Thụ, Hồng Bàng, TP. Hải Phòng					Hải Phòng
CN Kiến An	Số 129 Trần Thành Ngọ, Phường Trần Thành Ngọ, Kiến An, TP. Hải Phòng					Hải Phòng
CN Lê Chân	Số 124 Nguyễn Đức Cảnh, Phường Cát Dài, Lê Chân, TP. Hải Phòng					Hải Phòng
CN Ngô Quyền	Số 5 Phạm Minh Đức, Phường Máy Tơ, Ngô Quyền, TP. Hải Phòng					Hải Phòng
CN Đông Hải Phòng	Số 02/6A đường Lê Hồng Phong, Phường Đông Khê, Ngô Quyền, TP. Hải Phòng					Hải Dương
PGD Hai Bà Trưng - CN Lê Chân	Số 189 Hai Bà Trưng, Phường An Biên, Lê Chân, TP. Hải Phòng					Hải Dương
PGD Hoa Phượng - CN Lê Chân	Số 505 Lô HK17 KĐT ven sông Lạch Tray, Phường Vĩnh Niệm, Lê Chân, TP. Hải Phòng					Hải Phòng
PGD Hùng Vương - CN Hồng Bàng	Số 517 Hùng Vương, Phường Hùng Vương, Hồng Bàng, TP. Hải Phòng					Hải Phòng
PGD Đằng Giang - CN Hải Phòng	Tòa Mobifone KV 5, đường Phạm Văn Đồng, Phường Anh Dũng, Dương Kinh, TP. Hải Phòng					Hải Dương
PGD Đồ Sơn - CN Đông Hải Phòng	Số 193 Lý Thánh Tông, Phường Ngọc Xuyên, Đồ Sơn, TP. Hải Phòng					Hải Phòng
PGD Phong Lan - CN Hồng Bàng	Tòa nhà Thành Đạt 3, Số 04, Lê Thánh Tông, P. Máy Tơ, Ngô Quyền, TP. Hải Phòng					Hải Phòng
PGD Kiến Thụy - CN Hải Phòng	Đường 362, Thôn Xuân La, Xã Thanh Sơn, Kiến Thụy, TP. Hải Phòng					Sơn La
PGD Phạm Hữu Điều - CN Bắc Hải Phòng	Số 348 Trần Nguyên Hãn, Phường Niệm Nghĩa, Lê Chân, TP. Hải Phòng					Hải Phòng
PGD Quán Toan - CN Hồng Bàng	Số 150 khu 2 Quán Toan, Phường Quán Toan, Hồng Bàng, TP. Hải Phòng					Hải Phòng
PGD Lạch Tray - CN Ngô Quyền	Số 217D-219 Lạch Tray, Phường Đổng Quốc Bình, Ngô Quyền, TP. Hải Phòng					Hải Phòng
PGD Thanh Niên - CN Ngô Quyền	Số 768 Ngô Gia Tự, Phường Thành Tô, Hải An, TP. Hải Phòng					Hải Dương
PGD Thuỷ Nguyên - CN Hải Phòng	TDP Bạch Đằng, số 181 Bạch Đằng, Thị trấn Núi Đèo, Thuỷ Nguyên, TP. Hải Phòng					Hải Phòng
PGD Tôn Đức Thắng - CN Kiến An	Tòa nhà Á Âu Plaza, Số 69 Hồng Bàng, P. Sở Dầu, Hồng Bàng, TP. Hải Phòng					Cao Bằng
PGD Võ Nguyên Giáp - CN Ngô Quyền	Số 471 Võ Nguyên Giáp, Phường Vĩnh Niệm, Lê Chân, TP. Hải Phòng					Hải Phòng
PGD Vĩnh Bảo - CN Lê Chân	Số 108, Khu phố 3/2, Thị trấn Vĩnh Bảo, Vĩnh Bảo, TP. Hải Phòng					Vĩnh Phúc
PGD Thượng Lý - CN Hồng Bàng	Số 08 lô OH1 đường Hùng Vương, Phường Thượng Lý, Hồng Bàng, TP. Hải Phòng					Hải Dương
PGD Thắng Lợi - CN Bắc Hải Phòng	Thôn Vĩnh Khê, Xã An Đồng, An Dương, TP. Hải Phòng					Hải Dương
PGD Tiên Lãng - CN Kiến An	Thôn Tân Lập, Xã Đoàn Lập, Tiên Lãng, TP. Hải Phòng					Hải Phòng
PGD Tràng Duệ - CN Đông Hải Phòng	Tầng 1, số TM.LK04-12 KĐT Seoul Ecohome, Xã Lê Lợi, An Dương, TP. Hải Phòng					Hải Dương
PGD Trần Hưng Đạo - CN Lê Chân	Số 18 Trần Hưng Đạo, Phường Hoàng Văn Thụ, Hồng Bàng, TP. Hải Phòng					Hải Phòng
PGD Trần Nguyên Hãn - CN Lê Chân	Số 266I Trần Nguyên Hãn, Phường Niệm Nghĩa, Lê Chân, TP. Hải Phòng					Hải Phòng
PGD Tân Dương - CN Ngô Quyền	Số 147 Phố Mới Tân Dương, Xã Tân Dương, Thuỷ Nguyên, TP. Hải Phòng					Hải Dương
PGD Đà Nẵng - CN Ngô Quyền	Số 8AC22 Đà Nẵng - Cầu Tre, Phường Cầu Tre, Ngô Quyền, TP. Hải Phòng					Hải Phòng
PGD Đình Vũ - CN Hồng Bàng	Tầng 1 Công ty CP Cảng HP, KCN Đình Vũ, P. Đông Hải 2, Hải An, TP. Hải Phòng					Hải Dương
Trung tâm QLTM Hải phòng	124 Nguyễn Đức Cảnh, Phường Cát Dài, Lê Chân, TP. Hải Phòng					Hải Phòng
CN Hà Nam	Số 211 đường Lê Hoàn, Phường Quang Trung, Phủ Lý, Hà Nam					Hà Nam
PGD Đồng Văn - CN Hà Nam	Tòa nhà Thành Đạt, Phường Đồng Văn, Duy Tiên, Hà Nam					Hà Nam
PGD Kiện Khê - CN Hà Nam	Thị trấn Kiện Khê, Thanh Liêm, Hà Nam					Hà Nam
PGD Phủ Lý - CN Hà Nam	Số 135 Nguyễn Văn Trỗi, Phường Minh Khai, Phủ Lý, Hà Nam					Hà Nam
PGD Lê Hồng Phong - CN Hà Nam	Số 415 đường Lý Thường Kiệt, Phường Lê Hồng Phong, Phủ Lý, Hà Nam					Hải Phòng
PGD Thanh Liêm - CN Hà Nam	Quốc lộ 1A,Phường Thanh Tuyền, Phủ Lý, Hà Nam					Hà Nam
PGD Lý Nhân - CN Hà Nam	Trung tâm thương Mại Tiến Lộc, Thị trấn Vĩnh Trụ, Lý Nhân, Hà Nam					Hà Nam
PGD Trần Hưng Đạo - CN Hà Nam	Số 235 đường Trần Hưng Đạo, Phường Trần Hưng Đạo, Phủ Lý, Hà Nam					Hưng Yên
PGD Hưng Phát - CN Thăng Long	Số 33C đường Cát Linh, Phường Cát Linh, Đống Đa, TP. Hà Nội					Hà Nội
PGD Hưng Việt - CN Chương Dương	Lô D2, Trần Thái Tông, Phường Dịch Vọng Hậu, Cầu Giấy, TP. Hà Nội					Hà Nội
PGD 108 Trần Hưng Đạo - CN TP. Hà Nội	Số 108 Trần Hưng Đạo, Phường Cửa Nam, Hoàn Kiếm, TP. Hà Nội					Hà Nội
PGD 94B Trần Hưng Đạo - CN TP. Hà Nội	Số 94B Trần Hưng Đạo, Phường Cửa Nam, Hoàn Kiếm, TP. Hà Nội					Hà Nội
PGD An Khánh - CN Quang Trung	A10-NV4, ô số 37, KĐT mới Lê Trọng Tấn, Xã An Khánh, Hoài Đức, TP. Hà Nội					Hà Nội
PGD An Phát - CN Thăng Long	A2-TT9 KĐT Văn Quán (52 Nguyễn Khuyến), P. Văn Quán, Hà Đông, TP. Hà Nội					Hà Nội
PGD Học viện Nông Nghiệp - CN Chương Dương	Học viện Nông nghiệp Việt Nam, Thị trấn Trâu Quỳ, Gia Lâm, TP. Hà Nội					Hà Nội
PGD Hồ Giám - CN Đống Đa	Số 79 Tôn Đức Thắng, Phường Quốc Tử Giám, Đống Đa, TP. Hà Nội					Hà Nội
PGD Hồ Gươm - CN Hoàn Kiếm	Số nhà 25 phố Quang Trung, Phường Trần Hưng Đạo, Hoàn Kiếm, TP. Hà Nội					Hà Nội
PGD Hồ Tây - CN Hoàn Kiếm	Tầng 1 Tòa nhà 47 Phan Đình Phùng, Phường Quán Thánh, Ba Đình, TP. Hà Nội					Hà Nội
PGD Hồng Hà - CN TP. Hà Nội	Tòa Hateco Laroma - 4A Huỳnh Thúc Kháng, P. Láng Thượng, Đống Đa, TP. Hà Nội					Hà Nội
PGD Bà Triệu - CN TP. Hà Nội	Số 55 Bà Triệu, Phường Hàng Bài, Hoàn Kiếm, TP. Hà Nội					Hà Nội
PGD Bà Triệu - CN Thanh Xuân	Số 306 Bà Triệu, Phường Lê Đại Hành, Hai Bà Trưng, TP. Hà Nội					Hà Nội
PGD Bình Phú - CN Tây Thăng Long	Cụm công nghiệp Bình Phú, Xã Bình Phú, Thạch Thất, TP. Hà Nội					Hà Nội
PGD Bạch Mai - CN Hai Bà Trưng	Số 392A phố Bạch Mai, Phường Bạch Mai, Hai Bà Trưng, TP. Hà Nội					Hà Nội
PGD Bắc Hà - CN Bắc Thăng Long	Số 227 đường Ngô Gia Tự, Phường Đức Giang, Long Biên, TP. Hà Nội					Hà Nội
PGD Bắc Thăng Long - CN Đông Anh	Thôn Cổ Điển, Xã Hải Bối, Đông Anh, TP. Hà Nội					Hà Nội
PGD Bắc Từ Liêm - CN Tây Hà Nội	Số 368 Hồ Tùng Mậu, Phường Phú Diễn, Bắc Từ Liêm, TP. Hà Nội					Hà Nội
PGD Bắc Đô - CN Chương Dương	Số 148 phố Việt Hưng, Phường Việt Hưng, Long Biên, TP. Hà Nội					Hà Nội
CN Ba Đình	Số 126 Phố Đội Cấn, Phường Đội Cấn, Ba Đình, TP. Hà Nội					Hà Nội
CN Bắc Hà Nội	Số 441 Nguyễn Văn Linh, Phường Phúc Đồng, Long Biên, TP. Hà Nội					Hà Nội
PGD CHK Nội Bài - CN Đông Anh	Tầng 1, tòa nhà NTS, Sóc Sơn, TP. Hà Nội					Hà Nội
CN Bắc Thăng Long	Số 2, khu đô thị mới thị trấn Sóc Sơn, Sóc Sơn, TP. Hà Nội					Hà Nội
CN Chương Dương	Số 32/298 Ngọc Lâm, Phường Ngọc Lâm, Long Biên, TP. Hà Nội					Hà Nội
CN Hai Bà Trưng	Số 285 Trần Khát Chân, Phường Thanh Nhàn, Hai Bà Trưng, TP. Hà Nội					Hà Nội
PGD Chùa Bộc - CN Hà Thành	Số 267 Chùa Bộc, Phường Trung Liệt, Đống Đa, TP. Hà Nội					Hà Nội
PGD Chùa Láng - CN Ba Đình	Số 185 Phố Chùa Láng, Phường Láng Thượng, Đống Đa, TP. Hà Nội					Hà Nội
CN Hoàn Kiếm	Tầng 1, 2, 4 Tòa 25 Lý Thường Kiệt, P. Phan Chu Trinh, Hoàn Kiếm, TP. Hà Nội					Hà Nội
CN Hoàng Mai	Tầng 1,2,3 số 25 Tân Mai, Phường Tân Mai, Hoàng Mai, TP. Hà Nội					Hà Nội
CN Hà Thành	Tầng 1 đến 3, Tòa nhà Intracom 33 Cầu Diễn, P. Phú Diễn, Bắc Từ Liêm, TP. Hà Nội					Hà Nội
PGD Chương Mỹ - CN Tây Thăng Long	Tòa hỗn hợp HH1, DA khu VP GDTM&GTSP& nhà ở TT Chúc Sơn, Chương Mỹ, TP. Hà Nội					Hà Nội
PGD Chợ Hôm - CN Hai Bà Trưng	Ki ốt số 1-2-3-4 Chợ Hôm, Phường Phạm Đình Hổ, Hai Bà Trưng, TP. Hà Nội					Hà Nội
CN Nam Thăng Long	Số 421 (số cũ: 117A) Hoàng Quốc Việt, Phường Nghĩa Tân, Cầu Giấy, TP. Hà Nội					Hà Nội
PGD Cát Linh - CN Đống Đa	Số 17 Ngõ Hàng Bột, Phường Cát Linh, Đống Đa, TP. Hà Nội					Hà Nội
CN Quang Minh	Lô 9A KCN Quang Minh, Thị trấn Quang Minh, Mê Linh, TP. Hà Nội					Hà Nội
CN Quang Trung	Số 104 Đường Trần Phú, Phường Mộ Lao, Hà Đông, TP. Hà Nội					Hà Nội
PGD Cổ Linh - CN Chương Dương	Số 81-TTC, khu nhà ở 319 Bồ Đề, tổ 10, Phường Bồ Đề, Long Biên, TP. Hà Nội					Hà Nội
PGD Cửa Nam - CN Ba Đình	Số 34 Cửa Nam, Phường Cửa Nam, Hoàn Kiếm, TP. Hà Nội					Hà Nội
CN TP. Hà Nội	Số 6 Ngô Quyền, Phường Lý Thái Tổ, Hoàn Kiếm, TP. Hà Nội					Hà Nội
CN Thanh Xuân	Khu Nội chính, Phường Nhân Chính, Thanh Xuân, TP. Hà Nội					Hà Nội
CN Thành An	Tòa nhà HPC Landmark 105 Tố Hữu, Phường La Khê, Hà Đông, TP. Hà Nội					Hà Nội
CN Thăng Long	Tòa nhà TASCO, Lô HH2-2, Đường Phạm Hùng, P. Mễ Trì, Nam Từ Liêm, TP. Hà Nội					Hà Nội
CN Tràng An	T1,2 Tòa nhà Hoàng Thành 114 Mai Hắc Đế, P. Lê Đại Hành, Hai Bà Trưng, TP. Hà Nội					Hà Nội
PGD Doãn Kế Thiện - CN Tây Hà Nội	Số 02 đường Doãn Kế Thiện kéo dài, Phường Mai Dịch, Cầu Giấy, TP. Hà Nội					Hà Nội
PGD Duy Tân - CN Thăng Long	Số 5/82 phố Duy Tân, Phường Dịch Vọng, Cầu Giấy, TP. Hà Nội					Hà Nội
PGD Gamuda - CN Hoàng Mai	Nhà số CT1-A-01, lot F KĐT Gamuda Garden, P Trần Phú, Hoàng Mai, TP. Hà Nội					Hà Nội
CN Tây Hà Nội	Số 8 Hồ Tùng Mậu, Phường Mai Dịch, Cầu Giấy, TP. Hà Nội					Hà Nội
CN Tây Thăng Long	Tổ 3 Khu Tân Bình, Thị trấn Xuân Mai, Chương Mỹ, TP. Hà Nội					Hà Nội
CN Đô Thành	Số 10 Ngô Quyền, Phường Vạn phúc, Hà Đông, TP. Hà Nội					Hà Nội
CN Đông Anh	Tổ 4 Thị trấn Đông Anh, Đông Anh, TP. Hà Nội					Hà Nội
CN Đông Hà Nội	Số 284 Hà Huy Tập, Thị trấn Yên Viên, Gia Lâm, TP. Hà Nội					Hà Nội
PGD Greenbay - CN Tây Hà Nội	Số 21-ML6 Khu Shophouse Greenbay Mễ Trì, Phường Mễ Trì, Nam Từ Liêm, TP. Hà Nội					Hà Nội
PGD Hinode Royal Park - CN Hà Thành	Thôn Cổ Châu, Xã Vân Hà, Đông Anh, TP. Hà Nội					Hà Nội
CN Đống Đa	Số 183 Nguyễn Lương Bằng, Phường Quang Trung, Đống Đa, TP. Hà Nội					Hà Nội
CT TM DV ĐT Công đoàn Vietin	Tầng 3, Tòa nhà 34 Cửa Nam, Phường Cửa Nam, Hoàn Kiếm, TP. Hà Nội					Hà Nội
PGD Hoài Đức - CN Tây Hà Nội	Khu 7, Thị trấn Trạm Trôi, Hoài Đức, TP. Hà Nội					Hà Nội
PGD Hoàn Kiếm - CN Hoàn Kiếm	Số 35 Hàng Bồ, Phường Hàng Bồ, Hoàn Kiếm, TP. Hà Nội					Hà Nội
PGD Hoàng Diệu - CN Ba Đình	Số 80 Phố Quán Thánh, Phường Quán Thánh, Ba Đình, TP. Hà Nội					Hà Nội
PGD Hoàng Hoa Thám - CN Hoàng Mai	Số 119 Hoàng Hoa Thám, Phường Ngọc Hà, Ba Đình, TP. Hà Nội					Hà Nội
PGD Hoàng Quốc Việt - CN Tràng An	Số 7 ngõ 36 Hoàng Quốc Việt (số 1 Xuân Tảo), P.Nghĩa Đô, Cầu Giấy, TP. Hà Nội					Hà Nội
PGD Hoàng Văn Thái - CN Thanh Xuân	256 Hoàng Văn Thái, Phường Khương Trung, Thanh Xuân, TP. Hà Nội					Hà Nội
Cty Chuyển tiền toàn cầu	Tầng 3, Số 126 phố Đội Cấn, Phường Đội Cấn, Ba Đình, TP. Hà Nội					Hà Nội
PGD Hoàng Văn Thụ - CN Đô Thành	Tầng 1, Hatay Millennium, số 4 Quang Trung, P. Yết Kiêu, Hà Đông, TP. Hà Nội					Hà Nội
PGD Hà Đô - CN Nam Thăng Long	Số 24 Duy Tân, Phường Dịch Vọng Hậu, Cầu Giấy, TP. Hà Nội					Hà Nội
PGD Hà Đông - CN Thành An	Số 299 Quang Trung, Phường Quang Trung, Hà Đông, TP. Hà Nội					Hà Nội
PGD Hàng Da - CN Hoàn Kiếm	Số 46-48 Đường Thành, Phường Cửa Đông, Hoàn Kiếm, TP. Hà Nội					Hà Nội
Công ty Bảo hiểm NHCT	Tầng 10, 11 Tòa nhà 126 Đội Cấn, Phường Đội Cấn, Ba Đình, TP. Hà Nội					Hà Nội
Công ty Cho thuê tài chính	Số 16 Phan Đình Phùng, Phường Quán Thánh, Ba Đình, TP. Hà Nội					Hà Nội
Công ty Chứng Khoán	Tầng 1 đến tầng 4, Tòa nhà N02-T2 Khu Đoàn ngoại giao, Bắc Từ Liêm, TP. Hà Nội					Hà Nội
Công ty Quản lý quỹ Vietinbank	Tầng 6, Số 34 phố Cửa Nam, Phường Cửa Nam, Hoàn Kiếm, TP. Hà Nội					Hà Nội
Công ty Vàng bạc Đá quý	Tầng 2, Tòa nhà Hoàng Thành, 114 Mai Hắc Đế, Hai Bà Trưng, TP. Hà Nội					Hà Nội
PGD Hào Nam - CN Hoàng Mai	Số 110 Hào Nam, Phường Ô Chợ Dừa, Đống Đa, TP. Hà Nội					Hà Nội
PGD Tân Ấp - CN Ba Đình	Số 35 phố Tân ấp, Phường Phúc Xá, Ba Đình, TP. Hà Nội					Hà Nội
PGD Tây Hồ - CN Ba Đình	D5B KBT Vườn Đào (681 Lạc Long Quân), P. Phú Thượng, Tây Hồ, TP. Hà Nội					Hà Nội
PGD Tây Hồ - CN Đông Anh	Số 39 đường Âu Cơ, Phường Quảng An, Tây Hồ, TP. Hà Nội					Hà Nội
PGD Tây Hồ Tây - CN Bắc Thăng Long	LKC16, DA KNO thấp tầng A1TT1, Phường Xuân Tảo, Bắc Từ Liêm, TP. Hà Nội					Hà Nội
PGD Tây Đô - CN TP. Hà Nội	Tầng 1+ 2, Số 68 Nguyễn Du, Phường Nguyễn Du, Hai Bà Trưng, TP. Hà Nội					Hà Nội
PGD Đại An - CN Thăng Long	Số 39 đường Trần Phú, Phường Văn Quán, Hà Đông, TP. Hà Nội					Hà Nội
PGD Đại Kim - CN Quang Trung	T1 Tòa B Vinaconex2, KĐT mới Kim Văn Kim Lũ, P. Đại Kim, Hoàng Mai, TP. Hà Nội					Hà Nội
PGD Đặng Văn Ngữ - CN Đống Đa	Số 87 Đặng Văn Ngữ, Phường Trung Tự, Đống Đa, TP. Hà Nội					Hà Nội
PGD Định Công - CN Hoàng Mai	A6 Lô 12 Khu đô thị Định Công, Phường Định Công, Hoàng Mai, TP. Hà Nội					Hà Nội
PGD Phan Trọng Tuệ - CN Thành An	Số 31/1 Phan Trọng Tuệ, Xã Tả Thanh Oai, Thanh Trì, TP. Hà Nội					Hà Nội
PGD Đồng Dầu - CN Đông Anh	Thôn Đồng Dầu, Xã Dục Tú, Đông Anh, TP. Hà Nội					Hà Nội
PGD Đồng Tâm - CN Hai Bà Trưng	Số 46 Phố Vọng, Phường Phương Mai, Đống Đa, TP. Hà Nội					Hà Nội
PGD Đồng Xuân - CN Hoàn Kiếm	Số nhà 19-21 Cầu Đông, Phường Đồng Xuân, Hoàn Kiếm, TP. Hà Nội					Hà Nội
PGD Phú Diễn - CN Thăng Long	Số 143 đường Cầu Diễn, Phường Phúc Diễn, Bắc Từ Liêm, TP. Hà Nội					Hà Nội
PGD Phú Minh - CN Bắc Thăng Long	Số 55C Phố Chợ Phủ Lỗ, đường Quốc lộ 2, Xã Phủ Lỗ, Sóc Sơn, TP. Hà Nội					Hà Nội
PGD Phú Mỹ - CN Thành An	Khu công nghiệp Phú Nghĩa, Xã Phú Nghĩa, Chương Mỹ, TP. Hà Nội					Hà Nội
PGD Phú Thịnh - CN Đông Hà Nội	Số 30 Nguyễn Huy Nhuận, Xã Phú Thị, Gia Lâm, TP. Hà Nội					Hà Nội
PGD Phúc La - CN Quang Trung	Tầng 1, BT1- VT2, Khu đô thị Xa La, Phường Phúc La, Hà Đông, TP. Hà Nội					Hà Nội
PGD Phúc Lợi - CN Chương Dương	Số 123A phố Sài Đồng, Phường Sài Đồng, Long Biên, TP. Hà Nội					Hà Nội
PGD Phương Canh - CN Hà Thành	Số 93 phố Nhổn, Phường Phương Canh, Nam Từ Liêm, TP. Hà Nội					Hà Nội
PGD Khuất Duy Tiến - CN Thanh Xuân	Số 101 D2 Khuất Duy Tiến, Phường Thanh Xuân Bắc, Thanh Xuân, TP. Hà Nội					Hà Nội
PGD Khâm Thiên - CN Đống Đa	Số 352 Khâm Thiên, Phường Thổ Quan, Đống Đa, TP. Hà Nội					Hà Nội
PGD Khúc Thừa Dụ - CN Tràng An	Số 73 Khúc Thừa Dụ, Phường Dịch Vọng, Cầu Giấy, TP. Hà Nội					Hà Nội
PGD Khương Mai - CN Hoàng Mai	Số 311, đường Trường Chinh, Phường Khương Mai, Thanh Xuân, TP. Hà Nội					Hà Nội
PGD Khương Thượng - CN Đống Đa	Số 210 Lê Trọng Tấn, Phường Khương Mai, Thanh Xuân, TP. Hà Nội					Hà Nội
PGD Khương Trung - CN Thanh Xuân	Số 303 Vũ Tông Phan, Phường Khương Đình, Thanh Xuân, TP. Hà Nội					Hà Nội
PGD Kim Giang - CN Thanh Xuân	Số 6 Ngõ 64 Kim Giang, Phường Kim Giang, Thanh Xuân, TP. Hà Nội					Hà Nội
PGD Kim Liên - CN Đống Đa	Số 25 Lương Đình Của, Phường Kim Liên, Đống Đa, TP. Hà Nội					Hà Nội
PGD Kim Ngưu - CN Đông Hà Nội	Tòa15T1 Dự án 310 Minh Khai - 16 Tam Trinh, P. Mai Động, Hoàng Mai, TP. Hà Nội					Hà Nội
PGD Quán Thánh - CN Chương Dương	Số 130 Quán Thánh, Phường Quán Thánh, Ba Đình, TP. Hà Nội					Hà Nội
PGD La Phù - CN Thành An	Xóm Chùa Tổng, Xã La Phù, Hoài Đức, TP. Hà Nội					Hà Nội
PGD Linh Đàm - CN Hoàng Mai	Số 5 M6ATT6 Đặng Xuân Bảng, KĐT Bắc Linh Đàm, P.Đại Kim, Hoàng Mai, TP. Hà Nội					Hà Nội
PGD Liên Hà - CN Đông Anh	Số 296 đường Liên Hà, Xã Liên Hà, Đông Anh, TP. Hà Nội					Hà Nội
PGD Liễu Giai - CN Ba Đình	Số 393 phố Đội Cấn, Phường Vĩnh Phúc, Ba Đình, TP. Hà Nội					Hà Nội
PGD Long Biên - CN Chương Dương	Số 55R Đức Giang, Phường Đức Giang, Long Biên, TP. Hà Nội					Hà Nội
PGD Long Biên - CN Bắc Hà Nội	Số 337 Ngô Gia Tự, Phường Đức Giang, Long Biên, TP. Hà Nội					Hà Nội
PGD Quốc Oai - CN Thành An	Khu ĐG 02, đường Phủ Quốc, Thị trấn Quốc Oai, Quốc Oai, TP. Hà Nội					Hà Nội
PGD Royal - City Hà Nội - CN TP. Hà Nội	Tầng 1 Ô L1,2 Royal City 6, TTTM Vincom, P. Thượng Đình, Thanh Xuân, TP. Hà Nội					Hà Nội
PGD Láng - CN Tràng An	Số 90 Nguyễn Chí Thanh, Phường Láng Thượng, Đống Đa, TP. Hà Nội					Hà Nội
PGD Sông Cầu - CN Bắc Thăng Long	Số 172-174, Phố Nỷ, Xã Trung Giã, Sóc Sơn, TP. Hà Nội					Hà Nội
PGD Sông Hồng - CN Đông Anh	Nhà D1-107 Xuân La, Phường Xuân Tảo, Bắc Từ Liêm, TP. Hà Nội					Hà Nội
PGD Lê Thánh Tông - CN TP. Hà Nội	Số 29 Phố Lê Thánh Tông, Phường Phan Chu Trinh, Hoàn Kiếm, TP. Hà Nội					Hà Nội
PGD Lê Thạch - CN TP. Hà Nội	Số 6 Phố Lê Thạch, Phường Tràng Tiền, Hoàn Kiếm, TP. Hà Nội					Hà Nội
PGD Lê Trọng Tấn - CN Thanh Xuân	Số 26A Lê Trọng Tấn, Phường Khương Mai, Thanh Xuân, TP. Hà Nội					Hà Nội
PGD Lê Văn Lương - CN Bắc Thăng Long	Tầng 1 Tòa Viwaseen Tower, 48 Tố Hữu, Phường Trung Văn, Nam Từ Liêm, TP. Hà Nội					Hà Nội
PGD Thanh Am - CN Đông Hà Nội	Số 799-801 Ngô Gia Tự, Phường Đức Giang, Long Biên, TP. Hà Nội					Hà Nội
PGD Lò Đúc - CN Hai Bà Trưng	Số 81-83 phố Lò Đúc, Phường Phạm Đình Hổ, Hai Bà Trưng, TP. Hà Nội					Hà Nội
PGD Lý Nam Đế - CN TP. Hà Nội	Số 08 Lý Nam Đế, Phường Hàng Mã, Hoàn Kiếm, TP. Hà Nội					Hà Nội
PGD Lạc Long Quân - CN Nam Thăng Long	Số 52 Lạc Long Quân, Phường Bưởi, Tây Hồ, TP. Hà Nội					Hà Nội
PGD Lạc Trung - CN Hai Bà Trưng	Số 276 phố Lạc Trung, Phường Vĩnh Tuy, Hai Bà Trưng, TP. Hà Nội					Hà Nội
PGD Thanh Niên - CN Thành An	Số 58 Phó Đức Chính, Phường Trúc Bạch, Ba Đình, TP. Hà Nội					Hà Nội
PGD Thanh Thùy - CN Thành An	Số 92, tổ 2, Thị trấn Kim Bài, Thanh Oai, TP. Hà Nội					Hà Nội
PGD Thanh Trì - CN Thành An	Số 10 Nguyễn Bặc, Thị trấn Văn Điển, Thanh Trì, TP. Hà Nội					Hà Nội
PGD Thành Công - CN Ba Đình	Số 22 Thành Công, Phường Thành Công, Ba Đình, TP. Hà Nội					Hà Nội
PGD Thành Công - CN Chương Dương	Số 21 Huỳnh Thúc Kháng, Phường Láng Hạ, Đống Đa, TP. Hà Nội					Hà Nội
PGD Tương Mai - CN Hoàng Mai	Số 37 Nguyễn An Ninh, Phường Tương Mai, Hoàng Mai, TP. Hà Nội					Hà Nội
PGD Tạ Quang Bửu - CN Hai Bà Trưng	Số 17 Phố Tạ Quang Bửu, Phường Bách Khoa, Hai Bà Trưng, TP. Hà Nội					Hà Nội
PGD Tố Hữu - CN Nam Thăng Long	A3L1-02,Tầng 1,A3 Ecolife Capitol, 58 Tố Hữu, Trung Văn, Nam Từ Liêm, TP. Hà Nội					Hà Nội
PGD Từ Liêm - CN Thăng Long	Tổ 24 phố Nguyễn Văn Huyên, Phường Quan Hoa, Cầu Giấy, TP. Hà Nội					Hà Nội
PGD Vinhomes Mỹ Đình - CN Hà Thành	B17-02, lô TT17, Vinhomes Gardenia Mỹ Đình, P. Cầu Diễn, Nam Từ Liêm, TP. Hà Nội					Hà Nội
PGD Việt Hưng - CN Chương Dương	Ô A47 lô BT7 Khu đô thị Việt Hưng, Phường Giang Biên, Long Biên, TP. Hà Nội					Hà Nội
PGD Việt Phát - CN Quang Trung	Số 124 đường Quang Trung, Phường Quang Trung, Hà Đông, TP. Hà Nội					Hà Nội
PGD Minh Khai - CN Hoàng Mai	Ô DV04, Tầng 1, Tháp A - 75 Tam Trinh, P. Mai Động, Hoàng Mai, TP. Hà Nội					Hà Nội
PGD Mã Mây - CN Hoàn Kiếm	Số 12 Mã Mây, Phường Hàng Buồm, Hoàn Kiếm, TP. Hà Nội					Hà Nội
PGD Mê Linh - CN Quang Minh	Thôn Thường Lệ, Xã Đại Thịnh, Mê Linh, TP. Hà Nội					Hà Nội
PGD Mê Linh Plaza - CN Quang Minh	Km số 8 đường Bắc Thăng Long Nội Bài, Mê Linh, TP. Hà Nội					Hà Nội
PGD Thành Thái - CN Tây Hà Nội	Tầng 1, tòa nhà N09B1, KĐT Dịch Vọng, Phường Dịch Vọng, Cầu Giấy, TP. Hà Nội					Hà Nội
PGD Thành Tây - CN Thăng Long	Số187 Triều Khúc, Xóm Cầu,Thôn Triều Khúc, X.Tân Triều, Thanh Trì, TP. Hà Nội					Hà Nội
PGD Thành Đông - CN TP. Hà Nội	SD Building, 6A Vũ Đức Thận, Phường Việt Hưng, Long Biên, TP. Hà Nội					Hà Nội
PGD Thái Hà - CN Đống Đa	Số 159 Thái Hà, Phường Láng Hạ, Đống Đa, TP. Hà Nội					Hà Nội
PGD Thăng Long - CN Nam Thăng Long	Số 217 Xã Đàn, Phường Nam Đồng, Đống Đa, TP. Hà Nội					Hà Nội
PGD Thăng Long Quang Minh - CN Quang Minh	Tòa nhà điều hành KCN Thăng Long, Xã Kim Chung, Đông Anh, TP. Hà Nội					Hà Nội
PGD Vân Trì - CN Đông Anh	Số 188 phố vân Trì, Xã Vân Nội, Đông Anh, TP. Hà Nội					Hà Nội
PGD Văn Cao - CN Ba Đình	Tầng lửng và Tầng 2, Số 53 Văn Cao, Phường Liễu Giai, Ba Đình, TP. Hà Nội					Hà Nội
PGD Văn Phú - CN Đô Thành	Lô V6B, ô 9, Khu nhà ở Văn Phú, KĐT Văn Phú, P. Phú La, Hà Đông, TP. Hà Nội					Hà Nội
PGD Vĩnh Hoàng - CN Hai Bà Trưng	Tầng 1 Tòa nhà Hòa Bình, KCN Hoàng Mai, P.Hoàng Văn Thụ, Hoàng Mai, TP. Hà Nội					Hà Nội
PGD Mễ Trì - CN Nam Thăng Long	Tầng 1, Tháp The Manor, đường Mễ trì, Phường Mỹ Đình 1, Nam Từ Liêm, TP. Hà Nội					Hà Nội
PGD Mỹ Đình - CN Nam Thăng Long	Tầng 1 Nhà B6, Khu đô thị Mỹ Đình 1, Phường Cầu Diễn, Nam Từ Liêm, TP. Hà Nội					Hà Nội
PGD Thượng Đình - CN Thanh Xuân	Số 135 Nguyễn Trãi, Phường Thượng Đình, Thanh Xuân, TP. Hà Nội					Hà Nội
PGD Thạch Bàn - CN Bắc Hà Nội	Số 567 Nguyễn Văn Linh, Phường Sài Đồng, Long Biên, TP. Hà Nội					Hà Nội
PGD Vũ Ngọc Phan - CN Đống Đa	Số 11 Vũ Ngọc Phan, Phường Láng Hạ, Đống Đa, TP. Hà Nội					Hà Nội
PGD Vạn Phúc - CN Tây Thăng Long	14,15 dãy B1 Shophouse Vạn Phúc,đường Tố Hữu,P.Vạn Phúc, Hà Đông, TP. Hà Nội					Hà Nội
PGD Nam Hà Nội - CN Hoàng Mai	Đường Ngọc Hồi, Thôn Lưu Phái, Xã Ngũ Hiệp, Thanh Trì, TP. Hà Nội					Hà Nội
PGD Nam Thành Công - CN Thanh Xuân	Số 73 phố Láng Hạ, Phường Thành Công, Ba Đình, TP. Hà Nội					Hà Nội
PGD Nam Tân - CN Đô Thành	Số 2 Ba La, Phường Phú Lãm, Hà Đông, TP. Hà Nội					Hà Nội
PGD Nam Từ Liêm - CN Quang Minh	Tầng 1, 2 tòa CT2 Chung cư Hateco Apollo, P.Xuân Phương, Nam Từ Liêm, TP. Hà Nội					Hà Nội
PGD Nam Đô - CN Đông Hà Nội	Số 137A Yên Lãng, Phường Thịnh Quang, Đống Đa, TP. Hà Nội					Hà Nội
PGD Thụy Khuê - CN Ba Đình	Số 7 Hoàng Hoa Thám, Phường Ngọc Hà, Ba Đình, TP. Hà Nội					Hà Nội
PGD Thủ Đô - CN Đông Hà Nội	Nhà N8A1 Nguyễn Thị Thập, Phường Nhân Chính, Thanh Xuân, TP. Hà Nội					Hà Nội
PGD Times City - CN Hai Bà Trưng	T3, KĐT Times City, 458 phố Minh Khai, Phường Vĩnh Tuy, Hai Bà Trưng, TP. Hà Nội					Hà Nội
PGD Tiền Phong - CN Quang Minh	Phố Yên, Xã Tiền Phong, Mê Linh, TP. Hà Nội					Hà Nội
PGD Xuân Mai - CN Tây Thăng Long	Số 3 Khu Tân Bình, Thị trấn Xuân Mai, Chương Mỹ, TP. Hà Nội					Hà Nội
PGD Xuân Thủy - CN Thành An	Số 94 Trung Hòa, Phường Trung Hòa, Cầu Giấy, TP. Hà Nội					Hà Nội
PGD Xuân Đỉnh - CN Nam Thăng Long	Số 339 Phạm Văn Đồng, Phường Xuân Đỉnh, Bắc Từ Liêm, TP. Hà Nội					Hà Nội
PGD Xã Đàn - CN TP. Hà Nội	Số 210 Xã Đàn, Phường Phương Liên, Đống Đa, TP. Hà Nội					Hà Nội
PGD Yên Phụ - CN Ba Đình	Tầng 1, số 121 Yên Phụ, Phường Yên Phụ, Tây Hồ, TP. Hà Nội					Hà Nội
PGD Yên Thịnh - CN Đông Hà Nội	Số 69 Đặng Phúc Thông, Xã Yên Thường, Gia Lâm, TP. Hà Nội					Hà Nội
PGD Nghĩa Đô - CN Quang Minh	Tầng 1 Tòa nhà CT1B, Khu ĐTM Nghĩa Đô, Phường Cổ Nhuế 1, Bắc Từ Liêm, TP. Hà Nội					Hà Nội
PGD Ngoại giao đoàn - CN Thanh Xuân	Tầng 1 Tòa N02T2 Ngoại giao đoàn, Phường Xuân Tảo, Bắc Từ Liêm, TP. Hà Nội					Hà Nội
PGD Nguyễn Chánh - CN Hà Thành	A (SH28), khu đô thị mới Nam Trung Yên, Phường Yên Hòa, Cầu Giấy, TP. Hà Nội					Hà Nội
PGD Nguyễn Chí Thanh - CN Nam Thăng Long	Số 44 Phố Nguyễn Công Hoan, Phường Ngọc Khánh, Ba Đình, TP. Hà Nội					Hà Nội
PGD Nguyễn Du - CN Hoàn Kiếm	Số 92 phố Bà Triệu, Phường Hàng Bài, Hoàn Kiếm, TP. Hà Nội					Hà Nội
PGD Nguyễn Gia Thiều - CN Bắc Hà Nội	Số 370 Ngọc Lâm, Phường Ngọc Lâm, Long Biên, TP. Hà Nội					Hà Nội
PGD Trung Chính - CN Tây Thăng Long	17T1-17T2 KĐT Trung Hòa, Hoàng Đạo Thúy, P. Trung Hòa, Cầu Giấy, TP. Hà Nội					Hà Nội
PGD Trung Hoà - CN Tây Hà Nội	Số 33 Đào Tấn, Phường Ngọc Khánh, Ba Đình, TP. Hà Nội					Hà Nội
PGD Trung Văn - CN Đống Đa	Lô 10 Khu BT2, Khu nhà ở Trung Văn, Phường Trung Văn, Nam Từ Liêm, TP. Hà Nội					Hà Nội
PGD Tràng An - CN Chương Dương	Kios 103, Nhà B6 Giảng Võ, Phố Nam Cao, Phường Giảng Võ, Ba Đình, TP. Hà Nội					Hà Nội
PGD Tràng Tiền - CN TP. Hà Nội	Số 66 Tràng Tiền, Phường Tràng Tiền, Hoàn Kiếm, TP. Hà Nội					Hà Nội
PGD Trúc Bạch - CN Hoàn Kiếm	Số 5 Nguyễn Biểu, Phường Quán Thánh, Ba Đình, TP. Hà Nội					Hà Nội
PGD Trưng Vương - CN Bắc Hà Nội	Tầng 1, 2 số 21 Hàng Đậu, Phường Đồng Xuân, Hoàn Kiếm, TP. Hà Nội					Hà Nội
PGD Yên Thái - CN Tràng An	Số 275-277 Thụy Khuê, Phường Thụy Khuê, Tây Hồ, TP. Hà Nội					Hà Nội
PGD số 01 - CN Đô Thành	Số 25 Tây Sơn, Thị trấn Phùng, Đan Phượng, TP. Hà Nội					Hà Nội
PGD Nguyễn Hữu Thọ - CN Đống Đa	Kios số 10+12 nhà HH1A KĐT Linh Đàm, Phường Hoàng Liệt, Hoàng Mai, TP. Hà Nội					Hà Nội
PGD Nguyễn Ngọc Vũ - CN Thanh Xuân	Tầng 1, tòa nhà số 169 Nguyễn Ngọc Vũ, Phường Trung Hòa, Cầu Giấy, TP. Hà Nội					Hà Nội
PGD Nguyễn Thị Định - CN Quang Trung	Số 69 Nguyễn Thị Định, Phường Trung Hòa, Cầu Giấy, TP. Hà Nội					Hà Nội
PGD Nguyễn Trãi - CN Thanh Xuân	Số 267-269 Nguyễn Trãi, Phường Thanh Xuân Trung, Thanh Xuân, TP. Hà Nội					Hà Nội
PGD Nguyễn Tuân - CN Thanh Xuân	Tầng 1,Tòa nhà Sao Mai - 19 Lê Văn Lương, P. Nhân Chính, Thanh Xuân, TP. Hà Nội					Hà Nội
PGD Trần Bình - CN Tràng An	Căn 02, số 28 Trần Bình, Phường Mỹ Đình 2, Nam Từ Liêm, TP. Hà Nội					Hà Nội
PGD Trần Duy hưng - CN Thanh Xuân	Số 19/M1 KĐT Yên Hòa, 22 Trần Kim Xuyến, P.Yên Hòa, Cầu Giấy, TP. Hà Nội					Hà Nội
PGD Nguyễn Văn Linh - CN Bắc Hà Nội	Số 17 Ngô Xuân Quảng, Thị trấn Trâu Quỳ, Gia Lâm, TP. Hà Nội					Hà Nội
PGD Kỳ Anh - CN Hà Tĩnh	Số 693 đường Lê Hành, TDP Hưng Bình, Phường Hưng Trí, TX. Kỳ Anh, Hà Tĩnh					Hưng Yên
PGD Lộc Hà - CN Hà Tĩnh	Nhà ông Phan Công Thi, Ngã tư Thị Tứ, Xã Thạch Châu, Lộc Hà, Hà Tĩnh					Hà Nội
PGD Đức Thọ - CN Hà Tĩnh	Trung tâm thương mại Thị trấn Đức Thọ, Đức Thọ, Hà Tĩnh					Phú Thọ
PGD Hương Khê - CN Hà Tĩnh	Số 198 đường Trần Phú, Thị trấn Hương Khê, Hương Khê, Hà Tĩnh					Hà Tĩnh
PGD Hồng Lĩnh - CN Hà Tĩnh	Số 45, đường Trần Phú, Phường Nam Hồng, Hồng Lĩnh, Hà Tĩnh					Hà Nam
PGD Can Lộc - CN Hà Tĩnh	Số nhà 133 đường Xô Viết Nghệ Tĩnh, Thị trấn Nghèn, Can Lộc, Hà Tĩnh					Hà Tĩnh
CN Hà Tĩnh	Số 82 đường Phan Đình Phùng, Phường Nam Hà, Hà Tĩnh, Hà Tĩnh					Hà Nội
PGD Cẩm Xuyên - CN Hà Tĩnh	Số 170 Hà Huy Tập, tổ dân phố 9, Thị trấn Cẩm Xuyên, Cẩm Xuyên, Hà Tĩnh					Hà Nội
PGD Cái Tắc - CN Hậu Giang	Số 48, Quốc lộ 61, Thị trấn Cái Tắc, Châu Thành A, Hậu Giang					Hậu Giang
CN Hậu Giang	Số 59, đường 3 tháng 2, Khu vực 2, Phường 5, Vị Thanh, Hậu Giang					Hậu Giang
PGD Ngã Bảy - CN Hậu Giang	Số 3003 đường Hùng Vương, Phường Ngã Bảy, Ngã Bảy, Hậu Giang					Hậu Giang
PGD Long Mỹ - CN Hậu Giang	Số 1A1-2A1, đường 30 tháng 4, KV2, Phường Thuận An, TX. Long Mỹ, Hậu Giang					Long An
PGD Hữu Nghị - CN Hòa Bình	Đường Hoàng Văn Thụ, tổ 15, Phường Hữu Nghị, Hoà Bình, Hoà Bình					Hòa Bình
CN Hòa Bình	Số 555 đường Cù Chính Lan, Tổ 13, Phường Phương Lâm, Hoà Bình, Hoà Bình					Hòa Bình
PGD Kỳ Sơn - CN Hòa Bình	Phường Kỳ Sơn, Hoà Bình, Hoà Bình					Hòa Bình
PGD Sông Đà - CN Hòa Bình	Đường Lê Thánh Tông, Phường Hữu Nghị, Hoà Bình, Hoà Bình					Hòa Bình
PGD Lương Sơn - CN Hòa Bình	Số nhà 657, tiểu khu 13, Thị trấn Lương Sơn, Lương Sơn, Hoà Bình					Sơn La
PGD Đồng Tiến - CN Hòa Bình	Số nhà 04 Tổ 15 Phường Đồng Tiến, Hoà Bình, Hoà Bình					Hòa Bình
PGD Hùynh Tấn Phát - CN Nam Sài Gòn	Số 1330A Huỳnh Tấn Phát, Phường Phú Mỹ, Quận 7, TP. Hồ Chí Minh					Hồ Chí Minh
PGD Hưng Phát - CN Gia Định	Số 518B Điện Biên Phủ, Phường 21, Bình Thạnh, TP. Hồ Chí Minh					Điện Biên
PGD Hưng Phú - CN 8 - TP. HCM	Số 196 - 202 đường Hưng Phú, Phường 8, Quận 8, TP. Hồ Chí Minh					Hồ Chí Minh
PGD Hạnh Thông Tây - CN 9 - TP. HCM	Số 665 Quang Trung, Phường 11, Gò Vấp, TP. Hồ Chí Minh					Hồ Chí Minh
PGD KCX Tân Thuận - CN 4 - TP. HCM	Số 703 - 705 Huỳnh Tấn Phát, Phường Phú Thuận, Quận 7, TP. Hồ Chí Minh					Hồ Chí Minh
PGD An Nhơn - CN 9 - TP. HCM	Số 876 Lê Đức Thọ, Phường 15, Gò Vấp, TP. Hồ Chí Minh					Hồ Chí Minh
PGD An Phú - CN Thủ Thiêm	Số 16A Thái Thuận, Phường An Phú, Thủ Đức, TP. Hồ Chí Minh					Hồ Chí Minh
PGD An Đông - CN TP. HCM	Số 20 An Dương Vương, Phường 9, Quận 5, TP. Hồ Chí Minh					Hồ Chí Minh
PGD Ba Tháng Hai - CN 3 - TP. HCM	Số 298 đường Ba Tháng Hai, Phường 12, Quận 10, TP. Hồ Chí Minh					Hải Dương
PGD Hậu Giang - CN Tây Sài Gòn	Số 832 - 834 Hậu Giang, Phường 12, Quận 6, TP. Hồ Chí Minh					Hồ Chí Minh
PGD Bàu Cát - CN Tân Bình	Số 18 -20 Bàu Cát, Phường 14, Tân Bình, TP. Hồ Chí Minh					Hồ Chí Minh
PGD Bình Hòa - CN 7 - TP. HCM	Số 254 Nơ Trang Long, Phường 12, Bình Thạnh, TP. Hồ Chí Minh					Hồ Chí Minh
PGD Bình Thới - CN 6 - TP. HCM	Tầng 1+2 Số 265-267 Lê Đại Hành, Phường 13, Quận 11, TP. Hồ Chí Minh					Hồ Chí Minh
PGD Bình Trưng Tây - CN Thủ Thiêm	Số 55 Nguyễn Duy Trinh, Phường Bình Trưng Tây, Thủ Đức, TP. Hồ Chí Minh					Hồ Chí Minh
PGD Bình Trị Đông - CN Tây Sài Gòn	Số 145 Đường số 7, Phường Bình Trị Đông B, Bình Tân, TP. Hồ Chí Minh					Hòa Bình
PGD Bình Tân - CN Chợ Lớn	Số 216 Lê Văn Quới, Khu phố 16, Phường Bình Hưng Hòa A, Bình Tân, TP. Hồ Chí Minh					Hòa Bình
PGD Bình Tây - CN 5 - TP. HCM	Số 528, 530 Hậu Giang, Phường 12, Quận 6, TP. Hồ Chí Minh					Hồ Chí Minh
PGD Bình Đăng - CN 8 - TP. HCM	Số 252-254 đường Liên tỉnh 5, Phường 6, Quận 8, TP. Hồ Chí Minh					Hồ Chí Minh
CN 1 - TP. HCM	Tòa nhà số 93-95 Hàm Nghi, Phường Nguyễn Thái Bình, Quận 1, TP. Hồ Chí Minh					Thái Nguyên
CN 10 - TP. HCM	Số 111-121 Ngô Gia Tự, Phường 2, Quận 10, TP. Hồ Chí Minh					Hồ Chí Minh
CN 11 - TP. HCM	1443-1449 đường 3/2 và 158 Nguyễn Chí Thanh, Phường 16, Quận 11, TP. Hồ Chí Minh					Hồ Chí Minh
CN 12 - TP. HCM	Số 366 Trường Chinh, Phường 13, Tân Bình, TP. Hồ Chí Minh					Hồ Chí Minh
CN 2 - TP. HCM	Số 222 - 224 Phan Đình Phùng, Phường 1, Phú Nhuận, TP. Hồ Chí Minh					Hồ Chí Minh
CN 3 - TP. HCM	461-465 Nguyễn Đình Chiểu, 41,39 Cao Thắng, P.2, Quận 3, TP. Hồ Chí Minh					Hồ Chí Minh
CN 4 - TP. HCM	Số 57-59 Bến Vân Đồn, Phường 13, Quận 4, TP. Hồ Chí Minh					Hồ Chí Minh
CN 5 - TP. HCM	Số 279-281-283-287 Trần Phú, Phường 8, Quận 5, TP. Hồ Chí Minh					Hồ Chí Minh
CN 6 - TP. HCM	Tòa nhà số 635B đường Nguyễn Trãi, Phường 11, Quận 5, TP. Hồ Chí Minh					Hồ Chí Minh
CN 7 - TP. HCM	Số 346 Bùi Hữu Nghĩa, Phường 2, Bình Thạnh, TP. Hồ Chí Minh					Hồ Chí Minh
CN 8 - TP. HCM	Số 1073 Phạm Thế Hiển, Phường 5, Quận 8, TP. Hồ Chí Minh					Hồ Chí Minh
CN 9 - TP. HCM	Số 01 Nguyễn Oanh, Phường 10, Gò Vấp, TP. Hồ Chí Minh					Hồ Chí Minh
PGD Bến Thành - CN TP. HCM	Số 19 Phan Chu Trinh, Phường Bến Thành, Quận 1, TP. Hồ Chí Minh					Hồ Chí Minh
PGD Bến Vân Đồn - CN 4 - TP. HCM	Số 310 Bến Vân Đồn, Phường 2, Quận 4, TP. Hồ Chí Minh					Hồ Chí Minh
CN Bắc Sài Gòn	Số 144A Tỉnh lộ 8, khu phố 2,Thị trấn Củ Chi, Củ Chi, TP. Hồ Chí Minh					Hồ Chí Minh
CN Chợ Lớn	Số 132-134-136-138 Lũy Bán Bích, Phường Tân Thới Hòa, Tân Phú, TP. Hồ Chí Minh					Hồ Chí Minh
CN Gia Định	Số 92 Nguyễn Văn Trỗi, Phường 8, Phú Nhuận, TP. Hồ Chí Minh					Hồ Chí Minh
PGD Chợ Cầu - CN 9 - TP. HCM	Số 314A Phan Huy Ích, Phường 12, Gò Vấp, TP. Hồ Chí Minh					Hồ Chí Minh
PGD Chợ Lớn - CN 6 - TP. HCM	Số 26 - 28 Tháp Mười, Phường 2, Quận 6, TP. Hồ Chí Minh					Hồ Chí Minh
PGD Chợ Tân Bình - CN Tân Bình	Số 39 Lý Thường Kiệt, Phường 7, Tân Bình, TP. Hồ Chí Minh					Hồ Chí Minh
CN Nam Sài Gòn	Số 23 Nguyễn Hữu Thọ, Phường Tân Hưng, Quận 7, TP. Hồ Chí Minh					Hồ Chí Minh
PGD Cây Trâm - CN 9 - TP. HCM	Số 404 Nguyễn Văn Khối, Phường 9, Gò Vấp, TP. Hồ Chí Minh					Hồ Chí Minh
PGD Cầu Sơn - CN 7 - TP. HCM	Số 132-132A Nguyễn Xí, Phường 26, Bình Thạnh, TP. Hồ Chí Minh					Hồ Chí Minh
CN Sài Gòn	Số1425-1427 KP Mỹ Toàn 2, Nguyễn Văn Linh, P. Tân Phong, Quận 7, TP. Hồ Chí Minh					Hồ Chí Minh
PGD Cộng Hòa - CN Tây Sài Gòn	Số 540 Cộng Hòa, Phường 13, Tân Bình, TP. Hồ Chí Minh					Hòa Bình
CN TP. HCM	Số 79A Hàm Nghi, Phường Nguyễn Thái Bình, Quận 1, TP. Hồ Chí Minh					Thái Nguyên
CN Thủ Thiêm	Số 282,284,286,288 Trần Não, Khu phố 2, Phường An Khánh, Thủ Đức, TP. Hồ Chí Minh					Hồ Chí Minh
CN Thủ Đức	Số 01 Võ Văn Ngân, Phường Linh Chiểu, Thủ Đức, TP. Hồ Chí Minh					Hồ Chí Minh
CN Tân Bình	Tầng 1&2,Khối VP-TS VPĐD&TTTM,Số 20 Cộng Hoà, Phường 12, Tân Bình, TP. Hồ Chí Minh					Hòa Bình
CN Tây Sài Gòn	Lô 20 Đường Song Hành, KCN Tân Tạo, Phường Tân Tạo A, Bình Tân, TP. Hồ Chí Minh					Bình Dương
CN Đông Sài Gòn	Số 35 Nguyễn Văn Bá, Phường Bình Thọ, Thủ Đức, TP. Hồ Chí Minh					Hồ Chí Minh
PGD Gò Dầu - CN 1 - TP. HCM	Số 65 đường Gò Dầu, Phường Tân Quý, Tân Phú, TP. Hồ Chí Minh					Hồ Chí Minh
PGD Gò Vấp - CN 9 - TP. HCM	Số 821 Phan Văn Trị, Phường 7, Gò Vấp, TP. Hồ Chí Minh					Hồ Chí Minh
PGD Hai Bà Trưng - CN 3 - TP. HCM	Số 302 Hai Bà Trưng, Phường Võ Thị Sáu, Quận 1, TP. Hồ Chí Minh					Hải Phòng
PGD Hiệp Bình - CN 1 - TP. HCM	Số 47 đường Hiệp Bình, Phường Hiệp Bình Phước, Thủ Đức, TP. Hồ Chí Minh					Hòa Bình
PGD Hiệp Bình Phước - CN TP. HCM	Số 759, Quốc lộ 13, Phường Hiệp Bình Phước, Thủ Đức, TP. Hồ Chí Minh					Bình Phước
PGD Hiệp Phú - CN Thủ Đức	Số 191 Lê Văn Việt, Phường Hiệp Phú, Thủ Đức, TP. Hồ Chí Minh					Hồ Chí Minh
PGD Hiệp Phước - CN Sài Gòn	Số 6 lô A, KCN Hiệp Phước, Xã Long Thới, Nhà Bè, TP. Hồ Chí Minh					Hồ Chí Minh
PGD Hiệp Thành - CN 9 - TP. HCM	Số 34A/2 Nguyễn Ảnh Thủ, Phường Hiệp Thành, Quận 12, TP. Hồ Chí Minh					Hồ Chí Minh
PGD Hoa Việt - CN 5 - TP. HCM	Số 75, 77 Châu Văn Liêm, Phường 14, Quận 5, TP. Hồ Chí Minh					Hồ Chí Minh
Cty TNHH MTV QL nợ và KT TS	Số 196-202 Hưng Phú, Phường 8, Quận 8, TP. Hồ Chí Minh					Hồ Chí Minh
PGD Hà Huy Giáp - CN 9 - TP. HCM	Số 216 Hà Huy Giáp, Khu phố 3A, Phường Thạnh Lộc, Quận 12, TP. Hồ Chí Minh					Hồ Chí Minh
PGD Hòa Bình - CN 5 - TP. HCM	Số 34, 36 Bùi Hữu Nghĩa, Phường 5, Quận 5, TP. Hồ Chí Minh					Hồ Chí Minh
PGD Hóc Môn - CN Tân Bình	Số 37/7 Lý Thường Kiệt, Tổ 9, KP2, Thị trấn Hóc Môn, Hóc Môn, TP. Hồ Chí Minh					Hồ Chí Minh
PGD Tân Định - CN 1 - TP. HCM	Số 356-358 đường Hai Bà Trưng, Phường Tân Định, Quận 1, TP. Hồ Chí Minh					Hải Dương
PGD Tây Thạnh - CN Gia Định	Số 62-64 Tây Thạnh, Phường Tây Thạnh, Tân Phú, TP. Hồ Chí Minh					Thanh Hóa
PGD Tên Lửa - CN 11 - TP. HCM	Số 292 đường Tên Lửa, Phường Bình Trị Đông B, Bình Tân, TP. Hồ Chí Minh					Hòa Bình
PGD Đầm Sen - CN Tân Bình	Số 151 đường Kênh Tân Hóa, Phường Hòa Thạnh, Tân Phú, TP. Hồ Chí Minh					Hòa Bình
PGD Phan Huy Ích - CN 12 - TP. HCM	Số 115 Phan Huy Ích, Phường 15, Tân Bình, TP. Hồ Chí Minh					Hồ Chí Minh
PGD Phan Phú Tiên - CN 5 - TP. HCM	Số 222, 224 Trần Hưng Đạo, Phường 11, Quận 5, TP. Hồ Chí Minh					Hồ Chí Minh
PGD Phan Văn Hớn - CN 12 - TP. HCM	Số 145 Phan Văn Hớn, Phường Tân Thới Nhất, Quận 12, TP. Hồ Chí Minh					Hồ Chí Minh
PGD Phan Văn Trị - CN 4 - TP. HCM	Số 366A12 Phan Văn Trị, Phường 5, Gò Vấp, TP. Hồ Chí Minh					Hồ Chí Minh
PGD Phan Xích Long - CN 2 - TP. HCM	Số 153 Phan Đăng Lưu, Phường 2, Phú Nhuận, TP. Hồ Chí Minh					Hồ Chí Minh
PGD Phan Đăng Lưu - CN Gia Định	Số 20A-20B Phan Đăng Lưu, Phường 6, Bình Thạnh, TP. Hồ Chí Minh					Hồ Chí Minh
PGD Đồng Khánh - CN 5 - TP. HCM	Số 156,158 Hải Thượng Lãn Ông, Phường 10, Quận 5, TP. Hồ Chí Minh					Hải Phòng
PGD Đỗ Xuân Hợp - CN Đông Sài Gòn	Số 200, đường Đỗ Xuân Hợp, Phường Phước Long A, Thủ Đức, TP. Hồ Chí Minh					Hồ Chí Minh
PGD Phú Hưng - CN Bắc Sài Gòn	Số 219 Hoàng Văn Thụ, Phường 8, Phú Nhuận, TP. Hồ Chí Minh					Hồ Chí Minh
PGD Phú Lâm - CN 6 - TP. HCM	Số 1099A đường Hậu Giang, Phường 11, Quận 6, TP. Hồ Chí Minh					Hồ Chí Minh
PGD Phú Mỹ Hưng - CN Nam Sài Gòn	1020-1022 Khu Sky Garden, Nguyễn Văn Linh, P. Tân Phong, Quận 7, TP. Hồ Chí Minh					Hồ Chí Minh
PGD Phú Nhuận - CN 2 - TP. HCM	Số 358B Phan Đình Phùng, Phường 1, Phú Nhuận, TP. Hồ Chí Minh					Hồ Chí Minh
PGD Phú Thọ - CN 11 - TP. HCM	Số 680 Nguyễn Chí Thanh, Phường 4, Quận 11, TP. Hồ Chí Minh					Hồ Chí Minh
PGD Khánh Hội - CN Sài Gòn	Tầng trệt, Số 199 Khánh Hội, Phường 3, Quận 4, TP. Hồ Chí Minh					Hồ Chí Minh
PGD Phạm Hùng - CN 8 - TP. HCM	Số 229 Phạm Hùng, Phường 4, Quận 8, TP. Hồ Chí Minh					Hồ Chí Minh
PGD Quang Trung - CN Bắc Sài Gòn	Số 867, 867A, 867B Quang Trung, Phường 12, Gò Vấp, TP. Hồ Chí Minh					Hồ Chí Minh
PGD LaKai - CN 8 - TP. HCM	Số 297 đường Nguyễn tri Phương, Phường 5, Quận 10, TP. Hồ Chí Minh					Hải Phòng
PGD Rạch Ông - CN 8 - TP. HCM	Số 54-56-58 đường Nguyễn Thị Tần, Phường 3, Quận 8, TP. Hồ Chí Minh					Hồ Chí Minh
PGD Sala - CN 1 - TP. HCM	Số 103 Nguyễn Cơ Thạch, Phường An Lợi Đông, Thủ Đức, TP. Hồ Chí Minh					Hồ Chí Minh
PGD Lý Thái Tổ - CN 1 - TP. HCM	Số 246,248,250 Lý Thái Tổ, Phường 1, Quận 3, TP. Hồ Chí Minh					Hồ Chí Minh
PGD Lãnh Binh Thăng - CN 11 - TP. HCM	Số 292A+292B đường Lãnh Binh Thăng, Phường 11, Quận 11, TP. Hồ Chí Minh					Bình Dương
PGD Lê Quang Sung - CN Chợ Lớn	Tầng 1 + 2, tòa nhà 2S Lê Quang Sung, Phường 2, Quận 6, TP. Hồ Chí Minh					Hồ Chí Minh
PGD Lê Quang Định - CN 2 - TP. HCM	Số 592 Lê Quang Định, Phường 1, Gò Vấp, TP. Hồ Chí Minh					Hồ Chí Minh
PGD Lê Thị Riêng - CN Chợ Lớn	H2 Lê Thị Riêng, Phường Thới An, Quận 12, TP. Hồ Chí Minh					Hồ Chí Minh
PGD Lê Trọng Tấn - CN 12 - TP. HCM	Số 454 Lê Trọng Tấn, Phường Tây Thạnh, Tân Phú, TP. Hồ Chí Minh					Hồ Chí Minh
PGD Lê Văn Sỹ - CN Tân Bình	Số 361 Lê Văn Sỹ, Phường 1, Tân Bình, TP. Hồ Chí Minh					Hồ Chí Minh
PGD Lê Văn Việt - CN Đông Sài Gòn	Số 333, đường Lê Văn Việt, Phường Tăng Nhơn Phú A, Thủ Đức, TP. Hồ Chí Minh					Hồ Chí Minh
PGD Lý Thường Kiệt - CN 10 - TP. HCM	Tầng 1, số 235 Lý Thường Kiệt, Phường 6, Tân Bình, TP. Hồ Chí Minh					Hồ Chí Minh
PGD Lũy Bán Bích - CN 12 - TP. HCM	Số 272 - 272A Lũy Bán Bích, Phường Hòa Thạnh, Tân Phú, TP. Hồ Chí Minh					Thanh Hóa
PGD Lương Định Của - CN 7 - TP. HCM	GH BB-S05A, Khu NewCity,17 Mai Chí Thọ, P. Bình Khánh, Quận 2, TP. Hồ Chí Minh					Hồ Chí Minh
PGD Lạc Long Quân - CN Tây Sài Gòn	Số 839 Lạc Long Quân, Phường 10, Tân Bình, TP. Hồ Chí Minh					Hồ Chí Minh
PGD Thuận Hưng - CN Bắc Sài Gòn	G101 QL 22 và Số 70/2 ấp Mỹ Hoà 2, Xã Xuân Thới Đông, Hóc Môn, TP. Hồ Chí Minh					Hồ Chí Minh
PGD Tô Hiến Thành - CN 10 - TP. HCM	Số 195 Tô Hiến Thành, Phường 13, Quận 10, TP. Hồ Chí Minh					Hồ Chí Minh
PGD Tô Ngọc Vân - CN Đông Sài Gòn	Số 286A đường Tô Ngọc Vân, KP2, Phường Linh Đông, Thủ Đức, TP. Hồ Chí Minh					Hồ Chí Minh
PGD Tôn Đức Thắng - CN 7 - TP. HCM	Số 4/4 đường Nguyễn Bỉnh Khiêm, Phường Đa Kao, Quận 1, TP. Hồ Chí Minh					Bình Dương
PGD Vinhomes Tân Cảng - CN Thủ Thiêm	Tầng1 L2.SH01 Landmark 2, 720A Điện Biên Phủ, Phường 22, Bình Thạnh, TP. Hồ Chí Minh					Điện Biên
PGD METRO - CN Thủ Đức	Số 76 đường Song Hành, Phường An Phú, Thủ Đức, TP. Hồ Chí Minh					Hồ Chí Minh
PGD Thành Thái - CN TP. HCM	Số 147 Thành Thái, Phường 14, Quận 10, TP. Hồ Chí Minh					Hồ Chí Minh
PGD Thái Sơn - CN 2 - TP. HCM	Số 260 Nguyễn Thái Sơn, Phường 4, Gò Vấp, TP. Hồ Chí Minh					Thái Nguyên
PGD Tháp Mười - CN 6 - TP. HCM	Số 76-78-80 Tháp Mười, Phường 2, Quận 6, TP. Hồ Chí Minh					Hồ Chí Minh
PGD Võ Văn Ngân - CN Thủ Đức	Số 01 Võ Văn Ngân, Phường Linh Chiểu, Thủ Đức, TP. Hồ Chí Minh					Hồ Chí Minh
PGD Văn Thánh - CN 4 - TP. HCM	Tòa nhà 194 Goden Building, 473 Điện Biên Phủ, P. 25, Bình Thạnh, TP. Hồ Chí Minh					Điện Biên
PGD Thạnh Mỹ Tây - CN 7 - TP. HCM	Số 22 Xô Viết Nghệ Tĩnh, Phường 19, Bình Thạnh, TP. Hồ Chí Minh					Hồ Chí Minh
PGD Thảo Điền - CN Thủ Thiêm	Tầng trệt tòa nhà An Phú, 43-45 Thảo Điền, P. Thảo Điền, Thủ Đức, TP. Hồ Chí Minh					Điện Biên
PGD Thảo Điền Pearl - CN 4 - TP. HCM	L1-26, Thảo Điền Pearl, 12 Quốc Hương, P. Thảo Điền, Thủ Đức, TP. Hồ Chí Minh					Điện Biên
PGD Vĩnh Lộc - CN Chợ Lớn	Số 229 Nguyễn Thị Tú, Phường Bình Hưng Hòa B, Bình Tân, TP. Hồ Chí Minh					Hòa Bình
PGD Vườn Chuối - CN 3 - TP. HCM	Số 480 Nguyễn Đình Chiểu, Phường 4, Quận 3, TP. Hồ Chí Minh					Hồ Chí Minh
PGD Vạn Phúc - CN Thủ Thiêm	Số 20 Nguyễn Thị Nhung, KP5, Phường Hiệp Bình Chánh, Thủ Đức, TP. Hồ Chí Minh					Hồ Chí Minh
PGD Nancy - CN 5 - TP. HCM	Số 448 Trần Hưng Đạo, Phường 2, Quận 5, TP. Hồ Chí Minh					Hồ Chí Minh
PGD Trung Chánh - CN 9 - TP. HCM	Số 143/1 Nguyễn Ảnh Thủ, Xã Trung Chánh, Hóc Môn, TP. Hồ Chí Minh					Hồ Chí Minh
PGD Xóm Củi - CN 8 - TP. HCM	Số 364-366 Tùng Thiện Vương, Phường 13, Quận 8, TP. Hồ Chí Minh					Hồ Chí Minh
PGD Nguyễn Thái Học - CN 1 - TP. HCM	Số 37-39 Nguyễn Thái Học, Phường Cầu Ông Lãnh, Quận 1, TP. Hồ Chí Minh					Thái Nguyên
PGD Nguyễn Chí Thanh - CN 10 - TP. HCM	Số 163 Dương Tử Giang, Phường 15, Quận 5, TP. Hồ Chí Minh					Hồ Chí Minh
PGD Nguyễn Du - CN TP. HCM	Tầng trệt Số 162 đường Pasteur, Phường Bến Nghé, Quận 1, TP. Hồ Chí Minh					Hồ Chí Minh
PGD Nguyễn Duy Trinh - CN Đông Sài Gòn	Số 615, đường Nguyễn Duy Trinh, Phường Bình Trưng Đông, Thủ Đức, TP. Hồ Chí Minh					Bình Dương
PGD Trương Vĩnh Ký - CN 11 - TP. HCM	Số 31-31C Trương Vĩnh Ký, Phường Tân Thành, Tân Phú, TP. Hồ Chí Minh					Hồ Chí Minh
PGD Trường Sơn - CN TP. HCM	Số 93 Trần Quốc Hoàn, Phường 4, Tân Bình, TP. Hồ Chí Minh					Hồ Chí Minh
PGD Nguyễn Lương Bằng - CN 4 - TP. HCM	Số 208 Nguyễn Lương Bằng, KP Hưng Phúc, P. Tân Phú, Quận 7, TP. Hồ Chí Minh					Hồ Chí Minh
PGD Nguyễn Sơn - CN 11 - TP. HCM	Số 113 đường Nguyễn Sơn, Phường Phú Thạnh, Tân Phú, TP. Hồ Chí Minh					Phú Thọ
PGD Nguyễn Thị Minh Khai - CN TP. HCM	Số 20 Nguyễn Thị Minh Khai, Phường Đa Kao, Quận 1, TP. Hồ Chí Minh					Hồ Chí Minh
PGD Nguyễn Tri Phương - CN 6 - TP. HCM	Số 424 - 426 Nguyễn Tri Phương, Phường 4, Quận 10, TP. Hồ Chí Minh					Hải Phòng
PGD Trần Hưng Đạo - CN 1 - TP. HCM	Số 209-211 đường Trần Hưng Đạo, Phường Cô Giang, Quận 1, TP. Hồ Chí Minh					Hồ Chí Minh
PGD Âu Cơ - CN 2 - TP. HCM	Số 907 đường Âu Cơ, Phường Tân Sơn Nhì, Tân Phú, TP. Hồ Chí Minh					Hồ Chí Minh
PGD Nguyễn Văn Cừ - CN Nam Sài Gòn	Số 35E Hồ Hảo Hớn, Phường Cô Giang, Quận 1, TP. Hồ Chí Minh					Hồ Chí Minh
PGD Nguyễn Văn Lượng - CN 2 - TP. HCM	Số 257A7-257A8 Nguyễn Văn Lượng, Phường 10, Gò Vấp, TP. Hồ Chí Minh					Hồ Chí Minh
PGD Nguyễn Đình Chiểu - CN Sài Gòn	Số 354, 356, 360/2, 360/4 Nguyễn Thị Minh Khai,Phường 5, Quận 3, TP. Hồ Chí Minh					Hồ Chí Minh
PGD Ngô Gia Tự - CN 10 - TP. HCM	Số 530 - 532 Lê Hồng Phong, Phường 1, Quận 10, TP. Hồ Chí Minh					Hải Phòng
PGD Ngô Quyền - CN 10 - TP. HCM	Số 150-152 Ngô Quyền, Phường 5, Quận 10, TP. Hồ Chí Minh					Hồ Chí Minh
PGD Trần Xuân Soạn - CN Nam Sài Gòn	Số 725 Trần Xuân Sọan, Phường Tân Hưng, Quận 7, TP. Hồ Chí Minh					Hồ Chí Minh
PGD Đakao - CN 1 - TP. HCM	Số 2 Bis đường Nguyễn Huy Tự, Phường Đakao, Quận 1, TP. Hồ Chí Minh					Hồ Chí Minh
PGD Đinh Tiên Hoàng - CN TP. HCM	HMC Tower - Số 193 Đinh Tiên Hoàng, Phường ĐaKao, Quận 1, TP. Hồ Chí Minh					Hồ Chí Minh
PGD Đô Thành - CN 3 - TP. HCM	Số 464 Lê Văn Sỹ, Phường 14, Quận 3, TP. Hồ Chí Minh					Hồ Chí Minh
PGD Tân Hương - CN 12 - TP. HCM	Số 161-163 Tân Hương, Phường Tân Quý, Tân Phú, TP. Hồ Chí Minh					Hồ Chí Minh
PGD Tân Phú - CN Sài Gòn	Số 429 đường Âu Cơ, Phường Phú Trung, Tân Phú, TP. Hồ Chí Minh					Phú Thọ
PGD Tân Quy - CN 4 - TP. HCM	Số 549 Nguyễn Thị Thập, Phường Tân Phong, Quận 7, TP. Hồ Chí Minh					Hải Phòng
PGD Đông Thành - CN Thủ Đức	Tầng 1- 401/5-401/7 Nguyễn Duy Trinh, P. Bình Trưng Tây, Thủ Đức, TP. Hồ Chí Minh					Hồ Chí Minh
Trung tâm QLTM TP HCM	Tầng 7+9, Số 79A Hàm Nghi, Phường Nguyễn Thái Bình, Quận 1, TP. Hồ Chí Minh					Thái Nguyên
VPĐD tại TP. HCM	Lầu 14&15, 93-95 Hàm Nghi, Phường Nguyễn Thái Bình, Quận 1, TP. Hồ Chí Minh					Thái Nguyên
PGD Khoái Châu - CN Bắc Hưng Yên	Khu trung tâm thương mại, Thôn Yên Lịch, Xã Dân Tiến, Khoái Châu, Hưng Yên					Yên Bái
CN Bắc Hưng Yên	Số 88 Đường Nguyễn Văn Linh, Phường Bần Yên Nhân, Mỹ Hào, Hưng Yên					Yên Bái
CN Hưng Yên	Số 01 Điện Biên 1, Phường Lê Lợi, Hưng Yên, Hưng Yên					Điện Biên
PGD Chợ Gạo - CN Hưng Yên	Phố Chợ Gạo, Phường An Tảo, Hưng Yên, Hưng Yên					Yên Bái
PGD Phù Cừ - CN Hưng Yên	Thị trấn Trần Cao, Phù Cừ, Hưng Yên					Hưng Yên
PGD Kim Động - CN Hưng Yên	Thị trấn Lương Bằng, Kim Động, Hưng Yên					Hưng Yên
PGD Phố Hiến - CN Hưng Yên	Khu ngõ chợ Phố Hiến, phường Lê Lợi và Quang Trung, Hưng Yên, Hưng Yên					Yên Bái
PGD Văn Giang - CN Bắc Hưng Yên	Căn GMA-01, Shophouse Thủy Nguyên-Ecopark, TT Văn Giang, Văn Giang, Hưng Yên					Hà Giang
PGD Văn Lâm - CN Bắc Hưng Yên	Số 132-134 chợ Đường Cái, Xã Trưng Trắc, Văn Lâm, Hưng Yên					Hưng Yên
PGD Văn Phú - CN Hưng Yên	Thôn Từ Hồ, Xã Yên Phú, Yên Mỹ, Hưng Yên					Yên Bái
PGD Mỹ Hào - CN Bắc Hưng Yên	Đường Nguyễn Văn Linh, Phường Minh Đức, Mỹ Hào, Hưng Yên					Hưng Yên
PGD Tiên Lữ - CN Hưng Yên	Thị trấn Vương, Tiên Lữ, Hưng Yên					Hưng Yên
PGD Yên Mỹ - CN Bắc Hưng Yên	Xã Tân Lập, Yên Mỹ, Hưng Yên					Yên Bái
PGD Ân Thi - CN Bắc Hưng Yên	Số 94 Nguyễn Trung Ngạn, Thị trấn Ân Thi, Ân Thi, Hưng Yên					Hưng Yên
PGD Bình Tân - CN Khánh Hòa	Số 45 Nguyễn Đức Cảnh, Phường Phước Long, Nha Trang, Khánh Hoà					Khánh Hòa
PGD Cam Lâm - CN Khánh Hòa	Đường Đinh Tiên Hoàng, TDP Tân Hải, Thị trấn Cam Đức, Cam Lâm, Khánh Hoà					Hải Dương
PGD Cam Ranh - CN Khánh Hòa	Số 2130 Đại lộ Hùng Vương, Phường Cam Lộc, Cam Ranh, Khánh Hoà					Khánh Hòa
CN Khánh Hòa	Số 04 Hoàng Hoa Thám, Phường Vạn Thạnh, Nha Trang, Khánh Hoà					Hòa Bình
PGD Thái Nguyên - CN Khánh Hòa	Số 275 - 277 đường Thống Nhất, Phường Phương Sài, Nha Trang, Khánh Hoà					Hải Phòng
PGD Nha Trang - CN Khánh Hòa	Lô 202 MBQHPL Khu dân dư đường Phong Châu, P. Phước Hải, Nha Trang, Khánh Hoà					Hải Dương
PGD Ninh Hòa - CN Khánh Hòa	Số 446A Trần Quý Cáp, Tổ dân phố 3, Phường Ninh Hiệp, Ninh Hòa, Khánh Hoà					Hòa Bình
PGD Vĩnh Hải - CN Khánh Hòa	Số 434 đường 2/4, Phường Vĩnh Hải, Nha Trang, Khánh Hoà					Hải Dương
CN Kiên Giang	Số D11-5B đường 3 tháng 2, Phường Vĩnh Lạc, Rạch Giá, Kiên Giang					Kiên Giang
CN Phú Quốc	Số 100 đường 30/4, Phường Dương Đông, Phú Quốc, Kiên Giang					Hải Dương
PGD Giồng Riềng - CN Kiên Giang	Khu vực 5-6, Thị trấn Giồng Riềng, Giồng Riềng, Kiên Giang					Kiên Giang
PGD Hòn Đất - CN Kiên Giang	Số 61 khu phố Đường Hòn, Thị trấn Hòn Đất, Hòn Đất, Kiên Giang					Kiên Giang
PGD An Biên - CN Kiên Giang	Số 46A Quốc lộ 63, Tổ 1, Khu phố 5, Thị trấn Thứ Ba, An Biên, Kiên Giang					An Giang
PGD An Thới - CN Phú Quốc	Số 320 đường Nguyễn Văn Cừ, Khu phố 8, Phường An Thới, Phú Quốc, Kiên Giang					An Giang
PGD Tân Hiệp - CN Kiên Giang	Số 23, Khu phố B, Thị trấn Tân Hiệp, Tân Hiệp, Kiên Giang					Kiên Giang
PGD Kiên Lương - CN Kiên Giang	Số 240 Quốc lộ 80, Ấp Lò Bom, Thị trấn Kiên Lương, Kiên Lương, Kiên Giang					Kiên Giang
PGD Rạch Giá - CN Kiên Giang	Số 63 Lê Lợi, Phường Vĩnh Thanh Vân, Rạch Giá, Kiên Giang					Kiên Giang
PGD Rạch Sỏi - CN Kiên Giang	Số 15 Mai Thị Hồng Hạnh, Phường Rạch Sỏi, Rạch Giá, Kiên Giang					Kiên Giang
PGD Nguyễn Trung Trực - CN Phú Quốc	Số 228 Nguyễn Trung Trực, Phường Dương Đông, Phú Quốc, Kiên Giang					Kiên Giang
CN Kon Tum	Số 655 đường Nguyễn Huệ, Phường Quyết Thắng, Kon Tum, Kon Tum					Kon Tum
PGD Duy Tân - CN Kon Tum	Số 648 Phan Đình Phùng, Phường Duy Tân, Kon Tum, Kon Tum					Kon Tum
PGD Hòa Bình - CN Kon Tum	Số 225 Phạm Văn Đồng, Phường Lê Lợi, Kon Tum, Kon Tum					Kon Tum
PGD Đắk Tô - CN Kon Tum	Số 193A Hùng Vương, Thị trấn Đăk Tô, Đăk Tô, Kon Tum					Đắk Lắk
PGD Sa Thầy - CN Kon Tum	Số 345 đường Trần Hưng Đạo, Thôn 1, Thị trấn Sa Thầy, Sa Thầy, Kon Tum					Kon Tum
PGD TTTM Kon Tum - CN Kon Tum	Số 92 Trần Phú, Phường Thắng Lợi, Kon Tum, Kon Tum					Kon Tum
PGD Ngọc Hồi - CN Kon Tum	Số 864 Hùng Vương, Thị trấn Pleikần, Ngọc Hồi, Kon Tum					Kon Tum
PGD Đăk Hà - CN Kon Tum	Số 200-202 đường Hùng Vương, Thị trấn Đắk Hà, Đắk Hà, Kon Tum					Hà Nội
CN Lai Châu	Tổ 18, Phường Tân Phong, Lai Châu, Lai Châu					Lai Châu
PGD Than Uyên - CN Lai Châu	Khu 1, Thị trấn Than Uyên, Than Uyên, Lai Châu					Lai Châu
PGD Đoàn Kết - CN Lai Châu	Số 82-84 đường Vừ A Dính, Phường Đoàn Kết, Lai Châu, Lai Châu					Lai Châu
PGD Đông Phong - CN Lai Châu	Chợ đầu mối Trung tâm tỉnh, Tổ 26, Phường Đông Phong, Lai Châu, Lai Châu					Lai Châu
PGD Trần Hưng Đạo - CN Lai Châu	Số 123 đường Trần Hưng Đạo, Phường Đoàn Kết, Lai Châu, Lai Châu					Lai Châu
PGD Di Linh - CN Bảo Lộc	Số 616 Hùng Vương, Thị Trấn Di Linh, Di Linh, Lâm Đồng					Lâm Đồng
PGD Hòa Ninh - CN Bảo Lộc	Số 38A Quốc Lộ 20, Thôn 2, Xã Hòa Ninh, Di Linh, Lâm Đồng					Lâm Đồng
CN Bảo Lộc	Số 01 - 03, Đường 28/3, Phường 1, Bảo Lộc, Lâm Đồng					Lâm Đồng
PGD Bảo Lâm - CN Bảo Lộc	Số 56 Trần Phú,Tổ 7, Đường Trần Phú, Thị Trấn Lộc Thắng, Bảo Lâm, Lâm Đồng					Lâm Đồng
CN Lâm Đồng	Số 05 Lê Đại Hành, Phường 3, Đà Lạt, Lâm Đồng					Lâm Đồng
PGD Lộc Phát - CN Bảo Lộc	Số 549 Nguyễn Văn Cừ, Phường Lộc Phát, Bảo Lộc, Lâm Đồng					Lâm Đồng
PGD Đà Lạt - CN Lâm Đồng	Số 46-48 Khu Hòa Bình, Phường 1, Đà Lạt, Lâm Đồng					Hòa Bình
PGD Đơn Dương - CN Lâm Đồng	Số 362 đường 2/4, Thị trấn Thạnh Mỹ, Đơn Dương, Lâm Đồng					Hải Dương
PGD Đạ Huoai - CN Bảo Lộc	Số 316-318 đường Hùng Vương, Thị trấn Madaguôi, Đạ Huoai, Lâm Đồng					Lâm Đồng
PGD Đạ Tẻh - CN Bảo Lộc	Số 5A đường Nguyễn Đình Chiểu, Thị Trấn Đạ Tẻh, Đạ Tẻh, Lâm Đồng					Đà Nẵng
PGD Trần Phú - CN Lâm Đồng	Số 01 Lê Hồng Phong, Phường 4, Đà Lạt, Lâm Đồng					Hải Phòng
PGD Đức Trọng - CN Lâm Đồng	Km 270 Quốc lộ 20, Thị trấn Liên Nghĩa, Đức Trọng, Lâm Đồng					Lâm Đồng
PGD Phan Chu Trinh - CN Lâm Đồng	Số 14 Quang Trung, Phường 9, Đà Lạt, Lâm Đồng					Lâm Đồng
PGD Phan Đình Phùng - CN Lâm Đồng	Số 469 Phan Đình Phùng, Phường 2, Đà Lạt, Lâm Đồng					Lâm Đồng
CN Lạng Sơn	Số 35 đường Lê Lợi, Phường Vĩnh Trại, Lạng Sơn, Lạng Sơn					Sơn La
PGD Hữu Lũng - CN Lạng Sơn	Số 17 đường Chi Lăng, Thị trấn Hữu Lũng, Hữu Lũng, Lạng Sơn					Lạng Sơn
PGD Bắc Sơn - CN Lạng Sơn	Số nhà 14, Khối phố Nguyễn Thị Minh Khai, TT Bắc Sơn, Bắc Sơn, Lạng Sơn					Bắc Kạn
PGD Kỳ Lừa - CN Lạng Sơn	Số 206 Trần Đăng Ninh, Phường Hoàng Văn Thụ, Lạng Sơn, Lạng Sơn					Sơn La
PGD Lộc Bình - CN Lạng Sơn	Quốc lộ 4B, khu Bản Kho, Thị trấn Lộc Bình, Lộc Bình, Lạng Sơn					Hòa Bình
PGD Đồng Mỏ - CN Lạng Sơn	Kios 20+21,Chợ Đồng Mỏ, đường Đại Huề, Thị trấn Đồng Mỏ, Chi Lăng, Lạng Sơn					Lạng Sơn
PGD Đồng Đăng - CN Lạng Sơn	Số 167 Hoàng Văn Thụ, Khu Dây Thép, Thị trấn Đồng Đăng, Cao Lộc, Lạng Sơn					Lạng Sơn
PGD Chi Lăng - CN Lạng Sơn	Số 6 đường Quang Trung, Phường Chi Lăng, Lạng Sơn, Lạng Sơn					Sơn La
CN Lào Cai	Đại lộ Trần Hưng Đạo, Phường Nam Cường, Lào Cai, Lào Cai					Lào Cai
PGD KCN Tằng Loỏng - CN Lào Cai	Đường tỉnh lộ 151, thôn Cù 1, Thị trấn Tằng Loỏng, Bảo Thắng, Lào Cai					Lào Cai
PGD Bảo Thắng - CN Lào Cai	Đường 19-5, Thị trấn Phố Lu, Bảo Thắng, Lào Cai					Lào Cai
PGD Cam Đường - CN Lào Cai	Tổ 15, đường Hoàng Quốc Việt, Phường Pom Hán, Lào Cai, Lào Cai					Lào Cai
PGD Kim Tân - CN Lào Cai	Số 585 Hoàng Liên, Phường Kim Tân, Lào Cai, Lào Cai					Lào Cai
PGD Sapa - CN Lào Cai	Số 571 đường Điện Biên Phủ, Thị trấn Sapa, Sa Pa, Lào Cai					Lào Cai
PGD Thành phố - CN Lào Cai	Số 007 đường Hoàng Liên, Phường Cốc Lếu, Lào Cai, Lào Cai					Lào Cai
PGD Trần Hưng Đạo - CN Lào Cai	Lô 13, Ngã 6, Phường Kim Tân, Lào Cai, Lào Cai					Lào Cai
CN Long An	Số 396 Quốc lộ 1, Phường 4, Tân An, Long An					Nghệ An
PGD Cần Giuộc - CN Bến Lức	Số 79-81, Khu phố 2, Thị trấn Cần Giuộc, Cần Giuộc, Long An					Long An
PGD Cần Đước - CN Bến Lức	Số 19A, Quốc lộ 50, Khu 2, Thị trấn Cần Đước, Cần Đước, Long An					Long An
PGD Phước Lợi - CN Bến Lức	Số 02, Tỉnh lộ 835, Ấp 5, Xã Phước Lợi, Bến Lức, Long An					Long An
PGD Kỳ Son - CN Bến Lức	Ấp Kỳ Châu, Xã Bình Quới, Châu Thành, Long An					Lai Châu
PGD Mộc Hóa - CN Long An	Số 48 - 50 đường Hùng Vương, Phường 1, Kiến Tường, Long An					Long An
PGD Thủ Thừa - CN Bến Lức	Số 1, Đường 834, Lô A, KDC1, Thị trấn Thủ Thừa, Thủ Thừa, Long An					Thừa Thiên Huế
PGD Đức Hòa - CN Long An	Ô 3 Khu A, Thị trấn Hậu Nghĩa, Đức Hòa, Long An					Long An
PGD Đức Hòa Nam - CN Long An	Số 292 Ấp Bình Tả, Xã Đức Hòa Hạ, Đức Hòa, Long An					Hòa Bình
PGD Tân An - CN Long An	Số 30 Nguyễn Trung Trực, Phường 2, Tân An, Long An					Nghệ An
PGD Tân Thạnh - CN Long An	Số 198-200 đường số 3, Khu phố 1, Thị trấn Tân Thạnh, Tân Thạnh, Long An					Thanh Hóa
CN Bến Lức	Số 159 Quốc lộ 1A, Khu phố 1, Thị trấn Bến Lức, Bến Lức, Long An					Long An
PGD Châu Thành - CN Bến Lức	Số 219, Tỉnh lộ 827A, Khu phố 1, Thị trấn Tầm Vu, Châu Thành, Long An					Long An
PGD Châu Thị Kim - CN Long An	Số 08 -10 Châu Thị Kim, Phường 3, Tân An, Long An					Nghệ An
PGD Hạ Long - CN Nam Định	Số 217 đường Phù Nghĩa, Phường Quang Trung, Nam Định, Nam Định					Hà Nam
PGD Hải Hậu - CN Bắc Nam Định	Tòa nhà VietinBank, số 89 tổ 01, Thị trấn Yên Định, Hải Hậu, Nam Định					Nam Định
PGD Giao Thuỷ - CN Nam Định	Tổ dân phố Sơn Hòa, Thị trấn Giao Thủy, Giao Thủy, Nam Định					Nam Định
PGD Hàn Thuyên - CN Bắc Nam Định	Số 278 Hàn Thuyên, Phường Vị Xuyên, Nam Định, Nam Định					Hà Nam
PGD Hòa Vượng - CN Bắc Nam Định	Số 121+121A đường Đông A, Khu TĐC Cầu Vượt, P. Lộc Hòa, Nam Định, Nam Định					Hà Nam
PGD Hòa Xá - CN Bắc Nam Định	Số 76 đường Giải Phóng, Phường Trường Thi, Nam Định, Nam Định					Hải Phòng
CN Bắc Nam Định	Tòa nhà VietinBank, Số 01 Máy Tơ, Phường Trần Hưng Đạo, Nam Định, Nam Định					Hà Nam
CN Nam Định	Số 119 Quang Trung, Phường Quang Trung, Nam Định, Nam Định					Tuyên Quang
PGD Vụ Bản - CN Bắc Nam Định	Số 140 Tây Sơn, Thị trân Gôi, Vụ Bản, Nam Định					Nam Định
PGD Xuân Trường - CN Nam Định	Số nhà 125+127, Tổ 03 thị trấn Xuân Trường, Xuân Trường, Nam Định					Nam Định
PGD Thành Nam - CN Nam Định	Khu Công nghiệp Hoà Xá, Phường Mỹ Xá, Nam Định, Nam Định					Hà Nam
PGD Nam Phong - CN Nam Định	Số 135 Đường Đặng Xuân Bảng, Phường Nam Phong, Nam Định, Nam Định					Hải Phòng
PGD Nam Trực - CN Nam Định	Tổ 11 Thị trấn Nam Giang, Nam Trực, Nam Định					Hà Nam
PGD Ý Yên - CN Bắc Nam Định	Ngã 3 Cát Đằng, đường 10, Xã Yên Tiến, Ý Yên, Nam Định					Yên Bái
PGD Điện Biên - CN Bắc Nam Định	Số nhà 282 Điện Biên, Phường Cửa Bắc, Nam Định, Nam Định					Điện Biên
PGD Nghĩa Hưng - CN Nam Định	Số 42 Khu phố 2, Thị trấn Liễu Đề, Nghĩa Hưng, Nam Định					Nam Định
PGD Nguyễn Du - CN Bắc Nam Định	Số 41 đường Nguyễn Du, Phường Trần Hưng Đạo, Nam Định, Nam Định					Hà Nam
PGD Trực Ninh - CN Nam Định	Số 292 Khu A1, đường Điện Biên, Thị trấn Cổ Lễ, Trực Ninh, Nam Định					Điện Biên
PGD Năng Tĩnh - CN Nam Định	Số 27+28 CL14 KĐT Dệt, đường Trần Phú, Phường Cửa Bắc, Nam Định, Nam Định					Hà Nam
PGD Cửa Hội - CN Cửa Lò	Xóm Khánh Trang, Xã Nghi Xuân, Nghi Lộc, Nghệ An					Nghệ An
CN Vinh	Số 229 Lê Duẩn, Phường Trung Đô, Vinh, Nghệ An					Nghệ An
PGD Diễn Châu - CN Bắc Nghệ An	Xóm 3, Xã Diễn Thành, Diễn Châu, Nghệ An					Điện Biên
PGD Hưng Dũng - CN Nghệ An	Số 65 đường Nguyễn Phong Sắc, Phường Hưng Dũng, Vinh, Nghệ An					Hải Phòng
PGD Hưng Nguyên - CN Nghệ An	Quốc lộ 46, Khối 7, Thị trấn Hưng Nguyên, Hưng Nguyên, Nghệ An					Thái Nguyên
PGD Hưng Phúc - CN Cửa Lò	Số 146 đường Nguyễn Sỹ Sách, Phường Hưng Phúc, Vinh, Nghệ An					Vĩnh Phúc
PGD Hồng Sơn - CN Cửa Lò	Số 32-34-36 đường Hồng Sơn, Phường Hồng Sơn, Vinh, Nghệ An					Sơn La
PGD Diễn Hồng - CN Bắc Nghệ An	Khối Nam, Xã Diễn Hồng, Diễn Châu, Nghệ An					Điện Biên
PGD Diễn Thịnh - CN Nghệ An	Xóm 2, Xã Diễn Thịnh, Diễn Châu, Nghệ An					Điện Biên
PGD Diễn Đồng - CN Bắc Nghệ An	Xóm 3, Xã Diễn Đồng, Diễn Châu, Nghệ An					Điện Biên
PGD Hoàng Mai - CN Bắc Nghệ An	Xóm 20, Xã Quỳnh Vinh, Hoàng Mai, Nghệ An					Nghệ An
PGD Hà Huy Tập - CN Vinh	Số 99 đường V.I Lê Nin, Khối Yên Sơn, Phường Hà Huy Tập, Vinh, Nghệ An					Nghệ An
PGD Bãi Ngang - CN Bắc Nghệ An	Xóm 7, Xã Quỳnh Minh, Quỳnh Lưu, Nghệ An					Nghệ An
PGD Bình Minh - CN Cửa Lò	Số 190 Bình Minh, Phường Thu Thủy, Cửa Lò, Nghệ An					Nghệ An
PGD Bảo Thành - CN Nghệ An	Xóm 6, Xã Bảo Thành, Yên Thành, Nghệ An					Thanh Hóa
PGD Bắc Vinh - CN Nghệ An	Số 319 Nguyễn Trãi, Phường Quán Bàu, Vinh, Nghệ An					Nghệ An
CN Bắc Nghệ An	Khối 1, Thị trấn Cầu Giát, Quỳnh Lưu, Nghệ An					Nghệ An
CN Cửa Lò	Số 05 đường Nguyễn Sinh Cung, Phường Nghi Hương, Cửa Lò, Nghệ An					Nghệ An
PGD Bến Thủy - CN Vinh	Đường Nguyễn Văn Trỗi, Khối 11, Phường Bến Thủy, Vinh, Nghệ An					Nghệ An
CN Nghệ An	Số 7 Nguyễn Sỹ Sách, Phường Hà Huy Tập, Vinh, Nghệ An					Nghệ An
PGD Chợ Vinh - CN Nghệ An	Số 61 đường Hồng Sơn, Phường Hồng Sơn, Vinh, Nghệ An					Sơn La
PGD Lê Nin - CN Nghệ An	Căn hộ CH1+CH2, Chung cư A1, Xóm 20, Xã Nghi Phú, Vinh, Nghệ An					Nghệ An
PGD Yên Thành - CN Bắc Nghệ An	Khối 3, Thị trấn Yên Thành, Yên Thành, Nghệ An					Yên Bái
PGD Nam Đàn - CN Nghệ An	Khối Phan Bội Châu, Thị trấn Nam Đàn, Nam Đàn, Nghệ An					Hà Nam
PGD Đô Lương - CN Nghệ An	Xóm Hoa Thường, Xã Yên Sơn, Đô Lương, Nghệ An					Nghệ An
PGD Trường Thi - CN Vinh	Số 11 đường Hồ Tùng Mậu, Phường Hưng Bình, Vinh, Nghệ An					Nghệ An
PGD Ngã Sáu - CN Nghệ An	Số 154 Trần Phú, Phường Hồng Sơn, Vinh, Nghệ An					Nghệ An
PGD Đức Lộc - CN Vinh	Đường Lê Viết Thuật, Xóm Mỹ Trung, Xã Hưng Lộc, Vinh, Nghệ An					Nghệ An
PGD Phong Định Cảng - CN Cửa Lò	Số 289 Võ Nguyên Hiến, Phường Trường Thi, Vinh, Nghệ An					Nghệ An
PGD Vinh Chương - CN Vinh	Số 389 đường 1-9, Thị trấn Thanh Chương, Thanh Chương, Nghệ An					Thanh Hóa
PGD Vinh Sơn - CN Vinh	Xã Văn Sơn, Đô Lương, Nghệ An					Nghệ An
PGD Quán Hành - CN Nghệ An	TTTM Bảo Hưng, Khối 4, Thị trấn Quán Hành, Nghi Lộc, Nghệ An					Nghệ An
PGD Sơn Hải - CN Bắc Nghệ An	Xóm 3, Xã Sơn Hải, Quỳnh Lưu, Nghệ An					Nghệ An
PGD Lê Hồng Phong - CN Cửa Lò	Số 41 đường Lê Hồng Phong, Phường Hưng Bình, Vinh, Nghệ An					Hải Phòng
CN Ninh Bình	Số 951 đường Trần Hưng Đạo, Phường Vân Giang, Ninh Bình, Ninh Bình					Hòa Bình
CN Tam Điệp	Số 28 đường Đồng Giao, Phường Bắc Sơn, Tam Điệp, Ninh Bình					Bắc Ninh
PGD Gia Viễn - CN Ninh Bình	Phố mới, Thị trấn Me, Gia Viễn, Ninh Bình					Ninh Bình
PGD Kim Sơn - CN Ninh Bình	Mặt đường Nam sông Ân, Xóm 8, Xã Lưu Phương, Kim Sơn, Ninh Bình					Ninh Bình
PGD Yên Khánh - CN Ninh Bình	Đường Hồng Tiến, Thôn Đông Mai, Xã Khánh Hải, Yên Khánh, Ninh Bình					Hải Dương
PGD Yên Mô - CN Tam Điệp	Số 175 Tạ Uyên, Phố Trung Yên, Thị trấn Yên Thịnh, Yên Mô, Ninh Bình					Yên Bái
PGD Đinh Tiên Hoàng - CN Tam Điệp	Số 50 Đinh Tiên Hoàng, Phường Đông Thành, Ninh Bình, Ninh Bình					Hòa Bình
PGD Ninh Thành - CN Ninh Bình	81 Đường Lương Văn Tụy, Phố Phúc Tân, Phường Phúc Thành, Ninh Bình, Ninh Bình					Hòa Bình
Địa điểm kinh doanh PGD Hoa Lư - CN Tam Điệp	Số 209 Phố Mỹ Lộ, Thị trấn Thiên Tôn, Hoa Lư, Ninh Bình					Hòa Bình
CN Ninh Thuận	Số 77 đường 16/04, Phường Mỹ Bình, Phan Rang-Tháp Chàm, Ninh Thuận					Ninh Bình
PGD Ninh Phước - Thuận Nam - CN Ninh Thuận	Đường Nguyễn Huệ, Khu phố 4, Thị trấn Phước Dân, Ninh Phước, Ninh Thuận					Quảng Ninh
PGD Ninh Sơn - CN Ninh Thuận	Số 250 Lê Duẩn, Thị trấn Tân Sơn, Ninh Sơn, Ninh Thuận					Sơn La
PGD Phan Rang - CN Ninh Thuận	Số 468 Thống Nhất, Phường Mỹ Hương, Phan Rang-Tháp Chàm, Ninh Thuận					Ninh Thuận
PGD Tháp Chàm - CN Ninh Thuận	Số 704 đường 21/8, Phường Đô Vinh, Phan Rang-Tháp Chàm, Ninh Thuận					Ninh Thuận
PGD Bạch Hạc - CN Hùng Vương	Số 217 phố Đoàn kết, Phường Bạch Hạc, Việt Trì, Phú Thọ					Phú Thọ
CN Bắc Phú Thọ	Số 3769, Khu 1, Phường Vân Phú, Việt Trì, Phú Thọ					Phú Thọ
CN Hùng Vương	Số nhà 806 Đại Lộ Hùng Vương, Phường Thanh Miếu, Việt Trì, Phú Thọ					Phú Thọ
PGD Chợ Mè - CN TX. Phú Thọ	Số nhà 130, KDC Cao Du, Phường Âu Cơ, Phú Thọ, Phú Thọ					Phú Thọ
PGD Công Thương Thanh Ba - CN TX. Phú Thọ	Khu 9, Thị trấn Thanh Ba, Thanh Ba, Phú Thọ					Phú Thọ
PGD Cẩm Khê - CN TX. Phú Thọ	Khu 10, Thị trấn Cẩm Khê, Cẩm Khê, Phú Thọ					Phú Thọ
CN Phú Thọ	Số nhà 1514, Đại lộ Hùng Vương, Phường Gia Cẩm, Việt Trì, Phú Thọ					Phú Thọ
CN TX. Phú Thọ	Số 136 đường Phú An, Phường Phong Châu, Phú Thọ, Phú Thọ					Phú Thọ
PGD Dữu Lâu - CN Phú Thọ	Số nhà 569 đường Trần Phú, Phường Dữu Lâu, Việt Trì, Phú Thọ					Phú Thọ
PGD Gia Cẩm - CN Phú Thọ	Số nhà 1618, Đại lộ Hùng Vương, Phường Gia Cẩm, Việt Trì, Phú Thọ					Phú Thọ
PGD Hoà Phong - CN Hùng Vương	Số 456 Nguyễn Tất Thành, Phường Nông Trang, Việt Trì, Phú Thọ					Phú Thọ
PGD Hùng Vương - CN TX. Phú Thọ	Số 37 Đường 315, KDC Tân An, Phường Hùng Vương, Phú Thọ, Phú Thọ					Phú Thọ
PGD Hạ Hòa - CN TX. Phú Thọ	Khu 8, Thị Trấn Hạ Hòa, Hạ Hòa, Phú Thọ					Hà Nội
PGD Bãi Bằng - CN Bắc Phú Thọ	Số 220 (số cũ: 04) Khu Đường Nam, Thị trấn Phong Châu, Phù Ninh, Phú Thọ					Phú Thọ
PGD Tiên Cát - CN Hùng Vương	Số 1329 Đại lộ Hùng Vương, Phường Tiên Cát, Việt Trì, Phú Thọ					Phú Thọ
PGD Trung tâm - CN Phú Thọ	Số nhà 1464, Đại lộ Hùng Vương, Phường Tiên Cát, Việt Trì, Phú Thọ					Phú Thọ
PGD Tân Dân - CN Hùng Vương	Số 906 đường Châu Phong, Phường Tân Dân, Việt Trì, Phú Thọ					Phú Thọ
PGD Nông Trang - CN Phú Thọ	Số nhà 2256, Đại lộ Hùng Vương, Phường Vân Cơ, Việt Trì, Phú Thọ					Phú Thọ
PGD Phong Châu - CN Bắc Phú Thọ	Khu 9 xã Thạch Sơn, Lâm Thao, Phú Thọ					Phú Thọ
PGD Phú Hộ - CN TX. Phú Thọ	Khu 8, Xã Phú Hộ, Phú Thọ, Phú Thọ					Phú Thọ
PGD Vân Cơ - CN Bắc Phú Thọ	Số 2989 Đại lộ Hùng Vương, Phường Vân Cơ, Việt Trì, Phú Thọ					Phú Thọ
PGD Văn Lang - CN Bắc Phú Thọ	Số 2375 Đại lộ Hùng Vương, Khu 8, Phường Nông Trang, Việt Trì, Phú Thọ					Phú Thọ
PGD Phố Gát - CN Hùng Vương	Số 936 Đại lộ Hùng Vương, Phường Thọ Sơn, Việt Trì, Phú Thọ					Phú Thọ
PGD Lâm Thao - CN Phú Thọ	Số nhà 312, khu 12 Thị trấn Lâm Thao, Lâm Thao, Phú Thọ					Phú Thọ
PGD Tam Nông - CN Bắc Phú Thọ	Khu 24, Xã Vạn Xuân, Tam Nông, Phú Thọ					Phú Thọ
PGD Thanh Sơn - CN Bắc Phú Thọ	Số 30, phố Vàng, Thị trấn Thanh Sơn, Thanh Sơn, Phú Thọ					Sơn La
PGD Thanh Thuỷ - CN Phú Thọ	Khu phố La Phù, Thị trấn Thanh Thủy, Thanh Thủy, Phú Thọ					Phú Thọ
PGD Đoan Hùng - CN TX. Phú Thọ	Khu Tân Tiến, Thị Trấn Đoan Hùng, Đoan Hùng, Phú Thọ					Phú Thọ
PGD Minh Phương - CN Hùng Vương	Số 2601 Đại Lộ Hùng Vương, Phường Nông Trang, Việt Trì, Phú Thọ					Phú Thọ
PGD Minh Trang - CN Phú Thọ	Số nhà 1940 Đại lộ Hùng Vương, Phường Nông Trang, Việt Trì, Phú Thọ					Phú Thọ
PGD Chợ Tuy Hòa - CN Phú Yên	Số 239 - 241 Trần Hưng Đạo, Phường 4, Tuy Hòa, Phú Yên					Hưng Yên
CN Phú Yên	Số 236 Hùng Vương, Phường 7, Tuy Hòa, Phú Yên					Hưng Yên
PGD Bắc Tuy Hoà - CN Phú Yên	Đại lộ Nguyễn Tất Thành, Phường 9, Tuy Hòa, Phú Yên					Thanh Hóa
PGD Ngã Năm - CN Phú Yên	Số 71-73 Trần Hưng Đạo, Phường 1, Tuy Hòa, Phú Yên					Hưng Yên
PGD Tây Hòa - CN Phú Yên	Quốc lộ 29, Thị trấn Phú Thứ, Tây Hòa, Phú Yên					Phú Thọ
PGD Sông Cầu - CN Phú Yên	Khu phố Long Hải, Phường Xuân Phú, Sông Cầu, Phú Yên					Phú Thọ
PGD Sơn Hòa - CN Phú Yên	Số 35 Nguyễn Thị Minh Khai, Thị trấn Củng Sơn, Sơn Hòa, Phú Yên					Sơn La
PGD Đông Hòa - CN Phú Yên	Khu phố 3, Phường Hòa Vinh, Đông Hòa, Phú Yên					Hòa Bình
PGD Ba Đồn - CN Quảng Bình	Đường Quang Trung, Phường Ba Đồn, Ba Đồn, Quảng Bình					Tuyên Quang
PGD Bố Trạch - CN Quảng Bình	Số 432 Hùng Vương, Thị trấn Hoàn Lão, Bố Trạch, Quảng Bình					Quảng Bình
CN Quảng Bình	Số 50 Lý Thường Kiệt, Phường Đồng Phú, Đồng Hới, Quảng Bình					Quảng Bình
PGD Lệ Thủy - CN Quảng Bình	Số 02 Đường Tây Hồ, Thị trấn Kiến Giang, Lệ Thủy, Quảng Bình					Quảng Bình
PGD Đồng Hới - CN Quảng Bình	Số 328 Lý Thường Kiệt, Phường Bắc Lý, Đồng Hới, Quảng Bình					Quảng Bình
PGD Quảng Ninh - CN Quảng Bình	Tổ dân phố Văn Hùng, Thị trấn Quán Hàu, Quảng Ninh, Quảng Bình					Tuyên Quang
PGD Quảng Trạch - CN Quảng Bình	Thôn Dy Lộc, Xã Quảng Tùng, Quảng Trạch, Quảng Bình					Tuyên Quang
CN Hội An	Số 04 Hoàng Diệu, Phường Minh An, Hội An, Quảng Nam					Nghệ An
CN Quảng Nam	Số 154 Phan Bội Châu, Phường Tân Thạnh, Tam Kỳ, Quảng Nam					Quảng Nam
PGD Hà Lam - CN Quảng Nam	Số 26 Nguyễn Hoàng, Thị trấn Hà Lam, Thăng Bình, Quảng Nam					Hà Nam
PGD Hùng Vương - CN Hội An	Số 09 Hùng Vương, Phường Cẩm Phô, Hội An, Quảng Nam					Quảng Nam
PGD Vĩnh Điện - CN Hội An	Số 124 Trần Nhân Tông, Phường Vĩnh Điện, Điện Bàn, Quảng Nam					Điện Biên
PGD Tam Kỳ - CN Quảng Nam	Số 471 Phan Châu Trinh, Phường Phước Hòa, Tam Kỳ, Quảng Nam					Quảng Nam
PGD Điện Nam - Điện Ngọc - CN Hội An	Số 1056 đường Trần Hưng Đạo, Phường Điện Ngọc, Điện Bàn, Quảng Nam					Điện Biên
PGD Nam Phước - CN Quảng Nam	01 Hoàng Sa, Khối phố Long Xuyên 1, Thị trấn Nam Phước, Duy Xuyên, Quảng Nam					Hà Nam
PGD Chu Lai - CN Quảng Nam	Đường Phạm Văn Đồng, Khối phố 2, Thị trấn Núi Thành, Núi Thành, Quảng Nam					Thanh Hóa
CN Quảng Ngãi	Số 97 Hùng Vương, Phường Trần Hưng Đạo, Quảng Ngãi, Quảng Ngãi					Tuyên Quang
PGD Bình Sơn - Dung Quất - CN Quảng Ngãi	Số 268-270 Phạm Văn Đồng, Thị trấn Châu Ổ, Bình Sơn, Quảng Ngãi					Quảng Bình
PGD Sơn Tịnh - CN Quảng Ngãi	Số 432 đường Võ Nguyên Giáp, Phường Trương Quang Trọng, Quảng Ngãi, Quảng Ngãi					Tuyên Quang
PGD Lê Trung Đình - CN Quảng Ngãi	Số 217 Lê Trung Đình, Phường Trần Hưng Đạo, Quảng Ngãi, Quảng Ngãi					Tuyên Quang
PGD Đức Phổ - CN Quảng Ngãi	Số 537 Nguyễn Nghiêm, Phường Nguyễn Nghiêm, Đức Phổ, Quảng Ngãi					Thái Nguyên
PGD Nghĩa Hành - CN Quảng Ngãi	Số 495 đường Phạm Văn Đồng, Thị trấn Chợ Chùa, Nghĩa Hành, Quảng Ngãi					Quảng Ngãi
PGD Trần Phú - CN Quảng Ngãi	Số 198 Hùng Vương, Phường Trần Phú, Quảng Ngãi, Quảng Ngãi					Tuyên Quang
PGD Tư Nghĩa - CN Quảng Ngãi	Số 217 Nguyễn Huệ, Thị Trấn La Hà, Tư Nghĩa, Quảng Ngãi					Quảng Ngãi
PGD Hải Hà - CN Móng Cái	Số 211A đường Hoàng Hoa Thám, Thị trấn Quảng Hà, Hải Hà, Quảng Ninh					Hà Nội
PGD Hồng Hà - CN Quảng Ninh	Số 667 đường Nguyễn Văn Cừ, Phường Hồng Hà, Hạ Long, Quảng Ninh					Hà Nội
PGD Hồng Hải - CN Quảng Ninh	Số 235 Phố Hải Phúc, Phường Hồng Hải, Hạ Long, Quảng Ninh					Quảng Ninh
PGD Bạch Đằng - CN Quảng Ninh	Số 120 đường Lê Thánh Tông, Phường Bạch Đằng, Hạ Long, Quảng Ninh					Quảng Ninh
PGD Cao Xanh - CN Quảng Ninh	Số 245A Tổ 31B Khu 3 Phường Cao Xanh, Hạ Long, Quảng Ninh					Quảng Ninh
CN Cẩm Phả	Số 378 đường Trần Phú, Phường Cẩm Trung, Cẩm Phả, Quảng Ninh					Quảng Ninh
CN Móng Cái	Số 01 Hữu Nghị, Phường Trần Phú, Móng Cái, Quảng Ninh					Quảng Ninh
PGD Cái Lân - CN Tây Quảng Ninh	Ô số 116 Khu C, đông Ga Hạ Long, Phường Giếng Đáy, Hạ Long, Quảng Ninh					Hà Nội
CN Quảng Ninh	Đường 25/4, Phường Hồng Gai, Hạ Long, Quảng Ninh					Quảng Ninh
PGD Cẩm Phú - CN Cẩm Phả	Số 557 Trần Quốc Tảng, Phường Cẩm Phú, Cẩm Phả, Quảng Ninh					Quảng Ninh
PGD Cẩm Sơn - CN Cẩm Phả	Số 482 Hoàng Quốc Việt, Tổ 1, Khu Bình Sơn, P. Cẩm Sơn, Cẩm Phả, Quảng Ninh					Sơn La
PGD Cẩm Thành - CN Đông Quảng Ninh	Số nhà 139, Tổ 4, khu Minh Hòa, Phường Cẩm Bình, Cẩm Phả, Quảng Ninh					Hòa Bình
PGD Cẩm Thạch - CN Cẩm Phả	Số 788 đuờng Trần Phú, Phường Cẩm Thạch, Cẩm Phả, Quảng Ninh					Quảng Ninh
PGD Cẩm Tây - CN Cẩm Phả	Số 150 đường Trần Phú, Phường Cẩm Tây, Cẩm Phả, Quảng Ninh					Quảng Ninh
PGD Cẩm Đông - CN Cẩm Phả	Số 98 Lý Bôn, Phường Cẩm Đông, Cẩm Phả, Quảng Ninh					Quảng Ninh
PGD Cửa Ông - CN Cẩm Phả	Số 544 (Số cũ: 406) Lý Thường Kiệt, Phường Cửa Ông, Cẩm Phả, Quảng Ninh					Quảng Ninh
CN Tây Quảng Ninh	Đường Hạ Long, Phường Bãi Cháy, Hạ Long, Quảng Ninh					Hà Nội
CN Uông Bí	Số 466 Quang Trung, Phường Quang Trung, Uông Bí, Quảng Ninh					Tuyên Quang
CN Đông Quảng Ninh	Số 251, Tổ 1, khu 4, Thị trấn Cái Rồng, Vân Đồn, Quảng Ninh					Quảng Ninh
PGD Hoành Bồ - CN Tây Quảng Ninh	Tổ 5, khu 3 Trới, Phường Hoành Bồ, Hạ Long, Quảng Ninh					Quảng Ninh
PGD Hà Khẩu - CN Tây Quảng Ninh	Tổ 19, Khu 2, Phường Hà Khẩu, Hạ Long, Quảng Ninh					Hà Nội
PGD Hà Lầm - CN Quảng Ninh	Số 686 đường Hà Lầm, Tổ 1, Khu 4, Phường Hà Lầm, Hạ Long, Quảng Ninh					Hà Nội
PGD Hà Tu - CN Quảng Ninh	Số 202 Vũ Văn Hiếu, Phường Hà Tu, Hạ Long, Quảng Ninh					Hà Nội
PGD Đầm Hà - CN Móng Cái	Số 182 Lê Lương, Thị trấn Đầm Hà, Đầm Hà, Quảng Ninh					Hà Nội
PGD Phương Đông - CN Uông Bí	Khu Cầu Sến, Phường Phương Đông, Uông Bí, Quảng Ninh					Quảng Ninh
PGD Quang Trung - CN Uông Bí	Tổ 19, Khu 6, Phường Quang Trung, Uông Bí, Quảng Ninh					Tuyên Quang
PGD Kênh Đồng - CN Tây Quảng Ninh	Tổ 4 Khu 3, Phường Giếng Đáy, Hạ Long, Quảng Ninh					Quảng Ninh
PGD Thanh Sơn - CN Uông Bí	Số 546 đường Tuệ Tĩnh, Phường Thanh Sơn, Uông Bí, Quảng Ninh					Quảng Ninh
PGD Vàng Danh - CN Uông Bí	Tổ 12, Khu 4, Phường Vàng Danh, Uông Bí, Quảng Ninh					Quảng Ninh
PGD Mông Dương - CN Cẩm Phả	Tổ 2 khu 6 Phường Mông Dương, Cẩm Phả, Quảng Ninh					Quảng Ninh
PGD Mạo Khê - CN Uông Bí	Số 195, đường Hoàng Hoa Thám, Phường Mạo Khê, Đông Triều, Quảng Ninh					Quảng Ninh
PGD Vườn Đào - CN Tây Quảng Ninh	Kios B107,B108 Sun World ,đường Hạ Long, P. Bãi Cháy, Hạ Long, Quảng Ninh					Hà Nội
PGD Nam Khê - CN Uông Bí	Tổ 4 Khu Tre Mai, Phường Nam Khê, Uông Bí, Quảng Ninh					Quảng Ninh
PGD Yên Hưng - CN Uông Bí	Số 78 khu phố 4, phố Lê Lợi, Phường Quảng Yên, Quảng Yên, Quảng Ninh					Tuyên Quang
PGD số 01 - CN Quảng Ninh	Số 68A đường Kim Đồng, Tổ 2 Khu 1 Phường Hồng Hà, Hạ Long, Quảng Ninh					Hà Nội
PGD Trần Hưng Đạo - CN Quảng Ninh	Số 559 đường Cao Thắng, Phường Cao Thắng, Hạ Long, Quảng Ninh					Cao Bằng
PGD Trần Phú - CN Móng Cái	Số 27 Hùng Vương, Phường Trần Phú, Móng Cái, Quảng Ninh					Quảng Ninh
CN Quảng Trị	Số 236 Hùng Vương, Phường Đông Lễ, Đông Hà, Quảng Trị					Quảng Trị
PGD Hùng Vương - CN Quảng Trị	Số 02 Hùng Vương, Phường 1, Đông Hà, Quảng Trị					Quảng Trị
PGD Khe Sanh - CN Quảng Trị	Số 132 đường Lê Duẩn, Thị Trấn Khe Sanh, Hướng Hóa, Quảng Trị					Quảng Trị
PGD Bến Hải - CN Quảng Trị	Số 161 đường Lê Duẩn, Thị trấn Hồ Xá, Vĩnh Linh, Quảng Trị					Quảng Trị
PGD Lao Bảo - CN Quảng Trị	Số 04 đường Nguyễn Huệ, Thị trấn Lao Bảo, Hướng Hóa, Quảng Trị					Quảng Trị
PGD Thị xã Quảng Trị - CN Quảng Trị	Số 206 Trần Hưng Đạo, Phường 2, Quảng Trị, Quảng Trị					Tuyên Quang
PGD Trần Hưng Đạo - CN Quảng Trị	Số 23 đường Trần hưng Đạo, Phường 1, Đông Hà, Quảng Trị					Quảng Trị
CN Sóc Trăng	Số 24C đường Trần Hưng Đạo, Phường 2, Sóc Trăng, Sóc Trăng					Sóc Trăng
PGD Lê Lợi - CN Sóc Trăng	Số 69 đường Lê Lợi, Phường 6, Sóc Trăng, Sóc Trăng					Sóc Trăng
PGD Mỹ Xuyên - CN Sóc Trăng	Số 02A đường Lê Lợi, Thị trấn Mỹ Xuyên, Mỹ Xuyên, Sóc Trăng					Sóc Trăng
PGD Trần Đề - CN Sóc Trăng	Số 25 đường Nam Sông Hậu, Ấp Đầu Giồng, TT Trần Đề, Trần Đề, Sóc Trăng					Sóc Trăng
PGD Châu Thành - CN Sóc Trăng	Số 165 Quốc lộ 1 A, Ấp Trà Quýt A, Thị trấn Châu Thành, Châu Thành, Sóc Trăng					Lai Châu
CN Sơn La	Số 93, đường Nguyễn Lương Bằng, Tổ 2 Phường Quyết Thắng, Sơn La, Sơn La					Sơn La
PGD Chiềng Sinh - CN Sơn La	Tổ 06 Phường Chiềng Sinh, Sơn La, Sơn La					Sơn La
PGD Mai Sơn - CN Sơn La	Số 513, tiểu khu 6, Thị trấn Hát Lót, Mai Sơn, Sơn La					Sơn La
PGD Nông Trường - CN Sơn La	Gian 9-10 Siêu thị Mộc Châu Milk, Thị trấn NT Mộc Châu, Mộc Châu, Sơn La					Lai Châu
CN Tây Ninh	Số 247 đường 30/4 Phường 1, Tây Ninh, Tây Ninh					Quảng Ninh
PGD Dương Minh Châu - CN Hòa Thành	Số 63-65 Nguyễn Chí Thanh, ấp Tân Định 2, Xã Suối Đá, Dương Minh Châu, Tây Ninh					Tây Ninh
PGD Gò Dầu - CN Tây Ninh	Số 367 Ấp Thanh Hà, Thị trấn Gò Dầu, Gò Dầu, Tây Ninh					Tây Ninh
PGD Bàu Năng - CN Tây Ninh	Số 1331 đường 781, Xã Bàu Năng, Dương Minh Châu, Tây Ninh					Hải Dương
CN Hòa Thành	Số 77 Phạm Văn Đồng, Khu phố 2, Phường Long Hoa, Hòa Thành, Tây Ninh					Hòa Bình
PGD Chà Là - CN Tây Ninh	Đường 784 Ấp Bình Linh, Xã Chà Là, Dương Minh Châu, Tây Ninh					Hải Dương
PGD Châu Thành - CN Hòa Thành	Số 941 Hoàng Lê Kha, Khu phố 3, Thị trấn Châu Thành, Châu Thành, Tây Ninh					Lai Châu
CN KCN Trảng Bàng	Khu phố An Bình, Phường An Tịnh, Trảng Bàng, Tây Ninh					Ninh Bình
PGD Cầu Quan - CN Tây Ninh	Số 325 đường Cách mạng tháng 8, Phường 2, Tây Ninh, Tây Ninh					Quảng Ninh
PGD Lộc Hưng - CN KCN Trảng Bàng	Khu phố Lộc Tân, Phường Lộc Hưng, Trảng Bàng, Tây Ninh					Tây Ninh
PGD Mỏ Công - CN Hòa Thành	Số 80, Quốc lộ 22B, Ấp thanh Hòa, Xã Mỏ Công, Tân Biên, Tây Ninh					Thanh Hóa
PGD Thị Xã - CN Tây Ninh	Số 341 đường Tua 2, Khu phố 3, Phường 1, Tây Ninh, Tây Ninh					Quảng Ninh
PGD Trảng Bàng - CN KCN Trảng Bàng	Số 236, QL22, Khu phố Lộc Du, Phường Trảng Bàng, Trảng Bàng, Tây Ninh					Cao Bằng
PGD Tân Biên - CN Tây Ninh	Số 32 Nguyễn Văn Linh, Khu phố 3, Thị trấn Tân Biên, Tân Biên, Tây Ninh					Điện Biên
PGD Tân Châu - CN Tây Ninh	Đường 785, Khu phố 1, Thị trấn Tân Châu, Tân Châu, Tây Ninh					Lai Châu
PGD Phước Đông - CN KCN Trảng Bàng	Ấp Phước Đức, Xã Phước Đông, Gò Dầu, Tây Ninh					Bình Phước
PGD Kà Tum - CN Tây Ninh	Số 18 Tổ 1, ấp Đông Thành, Xã Tân Đông, Tân Châu, Tây Ninh					Lâm Đồng
PGD Hưng Hà - CN Thái Bình	Khu Nhân cầu 2, Thị trấn Hưng Hà, Hưng Hà, Thái Bình					Hà Nội
PGD Kiến Xương - CN Thái Bình	Khu Cộng Hòa, Thị trấn Thanh Nê, Kiến Xương, Thái Bình					Hòa Bình
PGD Lê Hồng Phong - CN Thái Bình	Số 57 Hai Bà Trưng, Phường Lê Hồng Phong, Thái Bình, Thái Bình					Hòa Bình
PGD Bồ Xuyên - CN Thái Bình	Số 174A Nguyễn Thị Minh Khai, Phường Bồ Xuyên, Thái Bình, Thái Bình					Hòa Bình
PGD Chợ Đậu - CN Thái Bình	Số 830 Lý Bôn, Phường Trần Lãm, Thái Bình, Thái Bình					Hòa Bình
PGD Minh Khai - CN Thái Bình	Số 1 Minh Khai, Phường Bồ Xuyên, Thái Bình, Thái Bình					Hòa Bình
CN Thái Bình	Số 190 Hai Bà Trưng, Phường Đề Thám, Thái Bình, Thái Bình					Hòa Bình
PGD Diêm Điền - CN Thái Bình	Khu 5, Thị trấn Diêm Điền, Thái Thụy, Thái Bình					Thái Nguyên
PGD Hoàng Công Chất - CN Thái Bình	Số 8 Hoàng Công Chất, Phường Quang Trung, Thái Bình, Thái Bình					Hòa Bình
PGD Tiền Hải - CN Thái Bình	Khu 4, Thị trấn Tiền Hải, Tiền Hải, Thái Bình					Hải Dương
PGD Tiểu Hoàng - CN Thái Bình	Số 141 Thị trấn Tiểu Hoàng, Tiền Hải, Thái Bình					Thái Bình
PGD Đông Hưng - CN Thái Bình	Tổ dân phố số 3 (tổ 6 cũ), Thị trấn Đông Hưng, Đông Hưng, Thái Bình					Hưng Yên
PGD Vũ Thư - CN Thái Bình	Khu Minh Tân II, Thị trấn Vũ Thư, Vũ Thư, Thái Bình					Thái Bình
PGD Quỳnh Phụ - CN Thái Bình	Số 17 Trần Hưng Đạo, Thị trấn Quỳnh Côi, Quỳnh Phụ, Thái Bình					Thái Bình
PGD Trần Hưng Đạo - CN Thái Bình	Số 36 Trần Phú, Phường Trần Hưng Đạo, Thái Bình, Thái Bình					Hòa Bình
PGD Cách mạng tháng 8 - CN Lưu Xá	Số 683, đường Cách Mạng Tháng 8, Phường Gia Sàng, Thái Nguyên, Thái Nguyên					Thái Nguyên
CN Lưu Xá	Số 656/1 đường Cách mạng tháng Tám, Phường Trung Thành, Thái Nguyên, Thái Nguyên					Thái Nguyên
CN Nam Thái Nguyên	Số 02 đường Thắng Lợi, Phường Mỏ Chè, Sông Công, Thái Nguyên					Thái Nguyên
CN Thái Nguyên	Số 62 đường Hoàng Văn Thụ, Phường Hoàng Văn Thụ, Thái Nguyên, Thái Nguyên					Thái Nguyên
PGD Huyện Phú Lương - CN Thái Nguyên	Số 226, Tổ dân phố Thái An, Thị Trấn Đu, Phú Lương, Thái Nguyên					Thái Nguyên
PGD Hương Sơn - Phú Bình - CN Lưu Xá	Đường quốc lộ 37, Tổ 01, Thị Trấn Hương Sơn, Phú Bình, Thái Nguyên					Thái Nguyên
PGD Ba Hàng - CN Nam Thái Nguyên	Số 426, Tổ dân phố 2, Phường Ba Hàng, Phổ Yên, Thái Nguyên					Thái Nguyên
PGD KCN Sông Công - CN Nam Thái Nguyên	Tổ dân phố Giếng, Phường Hồng Tiến, Phổ Yên, Thái Nguyên					Thái Nguyên
PGD Phố Cò - CN Nam Thái Nguyên	Số 718, Tổ dân phố 4A, Phường Phố Cò, Sông Công, Thái Nguyên					Thái Nguyên
PGD Quán Triều - CN Thái Nguyên	Số 547B, đường Dương Tự Minh, Phường Quán Triều, Thái Nguyên, Thái Nguyên					Thái Nguyên
PGD TTTM Phổ Yên - CN Nam Thái Nguyên	Số 246, đường Trường Chinh, Phường Nam Tiến, Phổ Yên, Thái Nguyên					Thái Nguyên
PGD Thanh Xuyên - CN Nam Thái Nguyên	Đường Hoàng Quốc Việt, TDP Thanh Xuyên 4, P.Trung Thành, Phổ Yên, Thái Nguyên					Thái Nguyên
PGD Điềm Thụy - CN Lưu Xá	Đường Quốc lộ 37, Xóm Thuần Pháp, Xã Điềm Thụy, Phú Bình, Thái Nguyên					Thái Nguyên
PGD Lương Ngọc Quyến - CN Thái Nguyên	Số 411, đường Lương Ngọc Quyến, Phường Hoàng Văn Thụ, Thái Nguyên, Thái Nguyên					Thái Nguyên
PGD Đán - CN Thái Nguyên	Số 522 Đường Quang Trung, Phường Thịnh Đán, Thái Nguyên, Thái Nguyên					Thái Nguyên
PGD Minh Cầu - CN Thái Nguyên	Số 217, đường Minh Cầu, Phường Phan Đình Phùng, Thái Nguyên, Thái Nguyên					Thái Nguyên
PGD Đại Từ - CN Thái Nguyên	Tổ dân phố Đình, Thị trấn Hùng Sơn, Đại Từ, Thái Nguyên					Thái Nguyên
PGD Trung Thành - CN Lưu Xá	Số 50 đường Gang thép, Tổ 11 Phường Trung Thành, Thái Nguyên, Thái Nguyên					Thái Nguyên
PGD Đồng Tiến - CN Lưu Xá	Số nhà 339-341, đường Lý Nam Đế, Phường Đồng Tiến, Phổ Yên, Thái Nguyên					Thái Nguyên
PGD Tân Long - CN Thái Nguyên	Số 174, đường Dương Tự Minh, Phường Tân Long, Thái Nguyên, Thái Nguyên					Thái Nguyên
PGD Tân Lập - CN Thái Nguyên	Số 268/270, đường 3/2, tổ 10, Phường Tân Lập, Thái Nguyên, Thái Nguyên					Thái Nguyên
PGD Tân Thành - CN Lưu Xá	Số 859/1 đường QL3, Tổ 2, Phường Tân Thành, Thái Nguyên, Thái Nguyên					Thái Nguyên
PGD Tân Thịnh - CN Thái Nguyên	Số 259, Đường Quang trung, Phường Tân Thịnh, Thái Nguyên, Thái Nguyên					Thái Nguyên
PGD Núi Voi - CN Thái Nguyên	Tổ 21, Phường Chùa Hang, Thái Nguyên, Thái Nguyên					Thái Nguyên
PGD Phan Đình Phùng - CN Thái Nguyên	Số 238B, đường CM Tháng 8, Phường Phan Đình Phùng, Thái Nguyên, Thái Nguyên					Thái Nguyên
PGD Tích Lương - CN Lưu Xá	Tổ 9, phường Tích Lương, Thái Nguyên, Thái Nguyên					Thái Nguyên
CN Sầm Sơn	Số 2 đường Đoàn Thị Điểm, Phường Trường Sơn, Sầm Sơn, Thanh Hoá					Sơn La
CN Thanh Hóa	Số 17 đường Phan Chu Trinh, Phường Điện Biên, Thanh Hóa, Thanh Hoá					Điện Biên
PGD Hoằng Hóa - CN Thanh Hóa	Kiot số 01+02 tòa nhà Shophouse, Thị trấn Bút Sơn, Hoằng Hóa, Thanh Hoá					Hòa Bình
PGD Hà Trung - CN Bắc Thanh Hóa	Số 248 tiểu khu 3, Thị trấn Hà Trung, Hà Trung, Thanh Hoá					Hà Nội
PGD Hậu Lộc - CN Bắc Thanh Hóa	Số 452, đường Bà Triệu, Khu 2, Thị trấn Hậu Lộc, Hậu Lộc, Thanh Hoá					Thanh Hóa
PGD Bà Triệu - CN Thanh Hóa	Số 559 đường Bà triệu, Phường Đông Thọ, Thanh Hóa, Thanh Hoá					Hòa Bình
PGD Quang Trung - CN Thanh Hóa	Số 221 đường Quang Trung, Phường Đông Vệ, Thanh Hóa, Thanh Hoá					Hòa Bình
PGD Vĩnh Lộc - CN Bắc Thanh Hóa	Khu 1, Thị trấn Vĩnh Lộc, Vĩnh Lộc, Thanh Hoá					Vĩnh Phúc
PGD Quảng Xương - CN Sầm Sơn	Số 76, phố 2, Thị trấn Tân Phong, Quảng Xương, Thanh Hoá					Thanh Hóa
PGD Lam Sơn - CN Sầm Sơn	Số 104 đường Lê Hoàn, Phường Lam Sơn, Thanh Hóa, Thanh Hoá					Hòa Bình
PGD Yên Định - CN Thanh Hóa	Số 505, đường 10 tháng 6, Thị trấn Quán Lào, Yên Định, Thanh Hoá					Thanh Hóa
PGD Lê Hữu Lập - CN Thanh Hóa	Số 04 đường Lê Hữu Lập, Phường Lam Sơn, Thanh Hóa, Thanh Hoá					Hòa Bình
PGD Thiệu Hóa - CN Bắc Thanh Hóa	Đường Quốc lộ 45, Tiểu khu 7, Thị trấn Thiệu Hóa, Thiệu Hóa, Thanh Hoá					Hòa Bình
PGD Lễ Môn - CN Sầm Sơn	Khu B, Khu CN Lễ Môn, Phường Quảng Hưng, Thanh Hóa, Thanh Hoá					Hòa Bình
PGD Thạch Thành - CN Bắc Thanh Hóa	Khu phố 6, Thị trấn Kim Tân, Thạch Thành, Thanh Hoá					Thanh Hóa
PGD Đông Sơn - CN Bắc Thanh Hóa	Khu 2, đường Trần Phú, Phường Lam Sơn, Bỉm Sơn, Thanh Hoá					Sơn La
PGD Đông Thọ - CN Sầm Sơn	Lô 34,35 đường Bà Triệu, Phường Đông Thọ, Thanh Hóa, Thanh Hoá					Hòa Bình
PGD Đông Vệ - CN Sầm Sơn	Số 117A đường Hải Thượng Lãn Ông, Phường Đông Vệ, Thanh Hóa, Thanh Hoá					Hòa Bình
PGD Thọ Xuân - CN Thanh Hóa	Số 243 đường Lê Lợi, khu 5, Thị trấn Thọ Xuân, Thọ Xuân, Thanh Hoá					Phú Thọ
PGD Triệu Sơn - CN Sầm Sơn	Số 130 Tô Vĩnh Diện, Thị trấn Triệu Sơn, Triệu Sơn, Thanh Hoá					Sơn La
PGD Nga Sơn - CN Bắc Thanh Hóa	Số 162 tiểu khu Ba Đình, Thị trấn Nga Sơn, Nga Sơn, Thanh Hoá					Sơn La
PGD Nghi Sơn - CN Sầm Sơn	Tổ dân phố Dự Quần, Phường Xuân Lâm, Thị xã Nghi Sơn, Thanh Hoá					Thanh Hóa
PGD Trường Sơn - CN Sầm Sơn	Số 68A đường Lê Lợi, Phường Trường Sơn, Sầm Sơn, Thanh Hoá					Sơn La
PGD Nguyễn Trãi - CN Thanh Hóa	Số 36 đường Nguyễn Trãi, Phường Ba Đình, Thanh Hóa, Thanh Hoá					Hòa Bình
PGD Trần Phú - CN Bắc Thanh Hóa	Số 398-400 đường Trần Phú, Phường Ba Đình, Thanh Hóa, Thanh Hoá					Hòa Bình
PGD Nông Cống - CN Thanh Hóa	Số 275 đường Bà Triệu, TK Lê Xá 1, Thị trấn Nông Cống, Nông Cống, Thanh Hoá					Thanh Hóa
PGD Tân Sơn - CN Thanh Hóa	Số 181 đường Nguyễn Trãi, Phường Tân Sơn, Thanh Hóa, Thanh Hoá					Hòa Bình
PGD Tây Thành - CN Thanh Hóa	Số 129 Phố Nam Sơn, Thị trấn Rừng Thông, Đông Sơn, Thanh Hoá					Sơn La
CN Bắc Thanh Hóa	Số 169 đường Trần Phú, Phường Ba Bình, Bỉm Sơn, Thanh Hoá					Hòa Bình
PGD Hương Trà - CN Thừa Thiên Huế	Số 103 đường Cách Mạng Tháng Tám, Phường Tứ Hạ, Hương Trà, Thừa Thiên Huế					Thừa Thiên Huế
PGD An Vân Dương - CN Nam Thừa Thiên Huế	Lô A1, Khu đô thị An Cựu City, Phường An Đông, Huế, Thừa Thiên Huế					Nghệ An
PGD Bà Triệu - CN Nam Thừa Thiên Huế	Số 66 Bà Triệu, Phường Phú Hội, Huế, Thừa Thiên Huế					Thừa Thiên Huế
CN Nam Thừa Thiên Huế	Số 45 Thuận Hóa, Phường Phú Bài, Hương Thủy, Thừa Thiên Huế					Thừa Thiên Huế
CN Thừa Thiên Huế	Số 02 Lê Quý Đôn, Phường Phú Hội, Huế, Thừa Thiên Huế					Thừa Thiên Huế
PGD Gia Hội - CN Thừa Thiên Huế	Số 119 Chi Lăng, Phường Gia Hội, Huế, Thừa Thiên Huế					Thừa Thiên Huế
PGD Tây Lộc - CN Thừa Thiên Huế	Số 33 Trần Quốc Toản, Phường Tây Lộc, Huế, Thừa Thiên Huế					Thừa Thiên Huế
PGD Phong Điền - CN Nam Thừa Thiên Huế	Số 53 Phò Trạch, Thị trấn Phong Điền, Phong Điền, Thừa Thiên Huế					Điện Biên
PGD Phú Lộc - CN Nam Thừa Thiên Huế	Số 160A Lý Thánh Tông, Thị trấn Phú Lộc, Phú Lộc, Thừa Thiên Huế					Phú Thọ
PGD Phạm Văn Đồng - CN Thừa Thiên Huế	Số 171 Phạm Văn Đồng, Phường Vỹ Dạ, Huế, Thừa Thiên Huế					Thừa Thiên Huế
PGD Lê Lợi - CN Nam Thừa Thiên Huế	Số 40 Lê Lợi, Phường Phú Hội, Huế, Thừa Thiên Huế					Thừa Thiên Huế
PGD Thuận Thành - CN Thừa Thiên Huế	Số 119 Mai Thúc Loan, Phường Đông Ba, Huế, Thừa Thiên Huế					Thừa Thiên Huế
PGD Nguyễn Huệ - CN Thừa Thiên Huế	Số 12 Nguyễn Huệ, Phường Vĩnh Ninh, Huế, Thừa Thiên Huế					Thừa Thiên Huế
PGD Chợ Gạo - CN Tiền Giang	Khu 2, Thị trấn Chợ Gạo, Chợ Gạo, Tiền Giang					Tiền Giang
PGD Cái Bè - CN Tây Tiền Giang	Khu 4, Thị trấn Cái Bè, Cái Bè, Tiền Giang					Lào Cai
CN Tiền Giang	Số 15B Nam Kỳ Khởi Nghĩa, Phường 4, Mỹ Tho, Tiền Giang					Tiền Giang
CN Tây Tiền Giang	Quốc lộ 1A, Khu phố 2, Phường 5, TX. Cai Lậy, Tiền Giang					Tiền Giang
PGD Gò Công - CN Tiền Giang	Số 51 Trần Hưng Đạo, Khóm 1, Phường 2, Gò Công, Tiền Giang					Tiền Giang
PGD Gò Công Tây - CN Tiền Giang	Số 8D Nguyễn Văn Côn, Thị trấn Vĩnh Bình, Gò Công Tây, Tiền Giang					Tiền Giang
PGD Hưng Long - CN Tây Tiền Giang	Ấp Bình Thanh, Xã Tam Bình, H. Cai Lậy, Tiền Giang					Hòa Bình
PGD An Hữu - CN Tây Tiền Giang	Ấp 1, Xã An Hữu, Cái Bè, Tiền Giang					Tiền Giang
PGD Vĩnh Kim - CN Tiền Giang	Ấp Vĩnh Thạnh, Xã Vĩnh Kim, Châu Thành, Tiền Giang					Vĩnh Phúc
PGD Sông Tiền - CN Tiền Giang	Số 232 Lê Văn Phẩm, Phường 5, Mỹ Tho, Tiền Giang					Tiền Giang
PGD Long Định - CN Tây Tiền Giang	Sô 155, Ấp Tân Trang, Xã Đông Hòa, Châu Thành, Tiền Giang					Thanh Hóa
PGD Lê Lợi - CN Tiền Giang	Số 05 Lê Văn Duyệt, Phường 1, Mỹ Tho, Tiền Giang					Tiền Giang
PGD Đinh Bộ Lĩnh - CN Tiền Giang	Số 24/12 Đinh Bộ Lĩnh, Phường 8, Mỹ Tho, Tiền Giang					Tiền Giang
PGD Mỹ Tho - CN Tiền Giang	Số 12 Nguyễn Trãi, Phường 7, Mỹ Tho, Tiền Giang					Tiền Giang
PGD Ấp Bắc - CN Tây Tiền Giang	Số 504 Ấp Bắc, Phường 5, Mỹ Tho, Tiền Giang					Bắc Giang
PGD Châu Thành - CN Tiền Giang	Ấp Tân Phong, Xã Tân Lý Tây, Châu Thành, Tiền Giang					Tiền Giang
PGD Càng Long - CN Trà Vinh	Số 242, Quốc lộ 53, Khóm 3, Thị trấn Càng Long, Càng Long, Trà Vinh					Long An
CN Trà Vinh	Số 38A Nguyễn Thị Minh Khai, Khóm 1, Phường 2, Trà Vinh, Trà Vinh					Vĩnh Phúc
PGD Cầu Ngang - CN Trà Vinh	Số 32 Quốc lộ 23, Khóm Minh Thuận A, Thị trấn Cầu Ngang, Cầu Ngang, Trà Vinh					Trà Vinh
PGD Duyên Hải - CN Trà Vinh	Số 125 đường 2 tháng 9, Khóm 1, Phường 1, TX. Duyên Hải, Trà Vinh					Hải Dương
PGD Nguyễn Đáng - CN Trà Vinh	Số 15A Điện Biên Phủ, Phường 6, Trà Vinh, Trà Vinh					Điện Biên
PGD Tiểu Cần - CN Trà Vinh	Đường tránh Quốc lộ 60, Khóm 4, Thị trấn Tiểu Cần, Tiểu Cần, Trà Vinh					Trà Vinh
CN Tuyên Quang	Số 180 đường Nguyễn Văn Cừ, phường Minh Xuân, Tuyên Quang, Tuyên Quang					Tuyên Quang
PGD Hàm Yên - CN Tuyên Quang	Tổ nhân dân Tân Thinh, Thị trấn Tân Yên, Hàm Yên, Tuyên Quang					Tuyên Quang
PGD An Tường - CN Tuyên Quang	Tầng 1, TTTM Đức Hùng, Tổ 9, Phường An Tường, Tuyên Quang, Tuyên Quang					Tuyên Quang
PGD Sơn Dương - CN Tuyên Quang	Tổ nhân dân Cơ Quan, Thị trấn Sơn Dương, Sơn Dương, Tuyên Quang					Tuyên Quang
PGD Yên Sơn - CN Tuyên Quang	Tổ dân phố Trầm Ân, Thị trấn Yên Sơn, Yên Sơn, Tuyên Quang					Tuyên Quang
PGD Long Bình An - CN Tuyên Quang	Tổ 9, Phường Đội Cấn, Tuyên Quang, Tuyên Quang					Tuyên Quang
PGD Tân Quang - CN Tuyên Quang	Số 174 đường Bình Thuận, Tổ 16, Phường Tân Quang, Tuyên Quang, Tuyên Quang					Tuyên Quang
PGD Phan Thiết - CN Tuyên Quang	Tổ 01, Phường Phan Thiết, Tuyên Quang, Tuyên Quang					Tuyên Quang
PGD Chiêm Hóa - CN Tuyên Quang	Tổ Vĩnh Tài, Thị trấn Vĩnh Lộc, Chiêm Hóa, Tuyên Quang					Tuyên Quang
CN Vĩnh Long	Số 1C đường Hoàng Thái Hiếu, Phường 1, Vĩnh Long, Vĩnh Long					Vĩnh Phúc
PGD KCN Hòa Phú - CN Vĩnh Long	Số 31/9 QL 1A, KCN Hòa Phú, Ấp Phước Hòa, Xã Hòa Phú, Long Hồ, Vĩnh Long					Hòa Bình
PGD Bình Minh - CN Vĩnh Long	Số 434 Tổ 21, Khóm 5, Phường Cái Vồn, Bình Minh, Vĩnh Long					Vĩnh Long
PGD Bình Tân - CN Vĩnh Long	Tổ 14, khóm Thành Quới, Thị trấn Tân Quới, Bình Tân, Vĩnh Long					Vĩnh Long
PGD Phước Thọ - CN Vĩnh Long	Số 10 đường Nguyễn Trung Trực, Phường 8, Vĩnh Long, Vĩnh Long					Vĩnh Phúc
PGD Vũng Liêm - CN Vĩnh Long	Số 1146 Ấp Xuân Minh 1, Xã Trung Thành, Vũng Liêm, Vĩnh Long					Vĩnh Long
PGD Tam Bình - CN Vĩnh Long	Số 16 đường Lưu Văn Việt, Thị trấn Tam Bình, Tam Bình, Vĩnh Long					Hòa Bình
PGD Mang Thít - CN Vĩnh Long	Số 44 đường Phạm Hùng, Khóm 1, Thị trấn Cái Nhum, Mang Thít, Vĩnh Long					Vĩnh Long
PGD Mỹ Thuận - CN Vĩnh Long	Số 207 Khóm Tân Quới Đông, Phường Trường An, Vĩnh Long, Vĩnh Long					Vĩnh Phúc
PGD Trà Ôn - CN Vĩnh Long	Số 23D-24D Gia Long, Thị trấn Trà Ôn, Trà Ôn, Vĩnh Long					Long An
CN Phúc Yên	Số 4 Trần Hưng Đạo, Phường Trưng Trắc, Phúc Yên, Vĩnh Phúc					Vĩnh Phúc
PGD Gia Khánh - CN Bình Xuyên	Thôn Cổ Độ, Thị trấn Gia Khánh, Bình Xuyên, Vĩnh Phúc					Vĩnh Phúc
CN Vĩnh Phúc	Số 4 Đường Ngô Quyền, Phường Ngô Quyền, Vĩnh Yên, Vĩnh Phúc					Vĩnh Phúc
PGD Honda VN - CN Phúc Yên	Công ty Honda Việt Nam, Phường Phúc Thắng, Phúc Yên, Vĩnh Phúc					Vĩnh Phúc
PGD Hà Tiên - CN Vĩnh Phúc	6-S10 KĐT Hà Tiên, đường Nguyễn Tất Thành, P. Liên Bảo, Vĩnh Yên, Vĩnh Phúc					Vĩnh Phúc
PGD Hương Canh - CN Bình Xuyên	Khu phố 1, Thị trấn Hương Canh, Bình Xuyên, Vĩnh Phúc					Vĩnh Phúc
PGD Bắc Vĩnh Tường - CN Phúc Yên	Xóm Mới, Xã Tân Tiến, Vĩnh Tường, Vĩnh Phúc					Vĩnh Phúc
PGD Bắc Vĩnh Yên - CN Vĩnh Phúc	Số 396 đường Hùng Vương, Phường Tích Sơn, Vĩnh Yên, Vĩnh Phúc					Vĩnh Phúc
PGD Bắc Yên Lạc - CN Vĩnh Phúc	Thôn Giã Bàng, Xã Tề Lỗ, Yên Lạc, Vĩnh Phúc					Vĩnh Phúc
CN Bình Xuyên	Khu Thắng Lợi, Thị trấn Hương Canh, Bình Xuyên, Vĩnh Phúc					Vĩnh Phúc
PGD Vĩnh Lạc - CN Bình Xuyên	Khu 3, Thị trấn Vĩnh Tường, Vĩnh Tường, Vĩnh Phúc					Vĩnh Phúc
PGD Vĩnh Tường - CN Vĩnh Phúc	Khu phố mới, Thị Trấn Thổ Tang, Vĩnh Tường, Vĩnh Phúc					Vĩnh Phúc
PGD Xuân Hoà - CN Phúc Yên	Số 35, đường Trường Chinh, Phường Xuân Hoà, Phúc Yên, Vĩnh Phúc					Vĩnh Phúc
PGD Liên Bảo - CN Bình Xuyên	Số 4, Đường Nguyễn Trãi, Phường Liên Bảo, Vĩnh Yên, Vĩnh Phúc					Vĩnh Phúc
PGD Yên Lạc - CN Bình Xuyên	Khu IV, Thị trấn Yên Lạc, Yên Lạc, Vĩnh Phúc					Yên Bái
PGD Tam Dương - CN Vĩnh Phúc	Thị Trấn Hợp Hoà, Tam Dương, Vĩnh Phúc					Vĩnh Phúc
PGD Tam Đảo - CN Vĩnh Phúc	Km số 10, Xã Hợp Châu, Tam Đảo, Vĩnh Phúc					Vĩnh Phúc
PGD Lạc Hồng - CN Phúc Yên	Khu 3, trung tâm Thương Mại Yên Lạc, Thị trấn Yên Lạc, Yên Lạc, Vĩnh Phúc					Yên Bái
PGD Lập Thạch - CN Phúc Yên	Phố Tân Chiền, Thị trấn Lập Thạch, Lập Thạch, Vĩnh Phúc					Vĩnh Phúc
PGD Thăng Long Vĩnh Phúc - CN Vĩnh Phúc	Phòng 101 Nhà điều hành KCN Thăng Long, Xã Thiện Kế, Bình Xuyên, Vĩnh Phúc					Vĩnh Phúc
PGD Nam Vĩnh Yên - CN Vĩnh Phúc	Số 625 đường Mê Linh, Phường Khai Quang, Vĩnh Yên, Vĩnh Phúc					Vĩnh Phúc
PGD Trưng Trắc - CN Bình Xuyên	Số 50 đường Hai Bà Trưng, Phường Hùng Vương, Phúc Yên, Vĩnh Phúc					Vĩnh Phúc
PGD Hồng Hà - CN Yên Bái	Số 74 Trần Hưng Đạo, TDP Hồng Phong, Phường Hồng Hà, Yên Bái, Yên Bái					Yên Bái
PGD Nam Cường - CN Yên Bái	Số 5 đường Thành Công, Phường Nguyễn Thái Học, Yên Bái, Yên Bái					Yên Bái
CN Yên Bái	Số 887 đường Điện Biên, Phường Đồng Tâm, Yên Bái, Yên Bái					Điện Biên
PGD Nghĩa Lộ - CN Yên Bái	Số 242 đường Điện Biên, Phường Trung Tâm, Nghĩa Lộ, Yên Bái					Điện Biên
PGD Văn Yên - CN Yên Bái	Số 105 Tuệ Tĩnh, Tổ dân phố 5, Thị trấn Mậu An, Văn Yên, Yên Bái					Yên Bái
PGD Yên Bình - CN Yên Bái	Tổ 9 Thị trấn Yên Bình, Yên Bình, Yên Bái					Yên Bái